<?xml version="1.0" encoding="UTF-8"?>
<gpx xmlns="http://www.topografix.com/GPX/1/1" xmlns:gpxtpx="http://www.garmin.com/xmlschemas/TrackPointExtension/v1" xmlns:xsi="http://www.w3.org/2001/XMLSchema-instance" xsi:schemaLocation="http://www.topografix.com/GPX/1/1 http://www.topografix.com/GPX/1/1/gpx.xsd" version="1.1" creator="gpx.py -- https://github.com/tkrajina/gpxpy">
  <trk>
    <name>gpx from codoon</name>
    <type>Run</type>
    <trkseg>
      <trkpt lat="31.26515" lon="121.45058">
        <ele>23.65137</ele>
        <time>2015-08-06T13:31:57.433000Z</time>
      </trkpt>
      <trkpt lat="31.26524" lon="121.45057">
        <ele>23.63418</ele>
        <time>2015-08-06T13:32:03.027000Z</time>
      </trkpt>
      <trkpt lat="31.26533" lon="121.45052">
        <ele>23.66042</ele>
        <time>2015-08-06T13:32:07.048000Z</time>
      </trkpt>
      <trkpt lat="31.26542" lon="121.45047">
        <ele>23.71895</ele>
        <time>2015-08-06T13:32:11.047000Z</time>
      </trkpt>
      <trkpt lat="31.2655" lon="121.45039">
        <ele>23.43589</ele>
        <time>2015-08-06T13:32:15.055000Z</time>
      </trkpt>
      <trkpt lat="31.2656" lon="121.45034">
        <ele>23.60794</ele>
        <time>2015-08-06T13:32:20.029000Z</time>
      </trkpt>
      <trkpt lat="31.2657" lon="121.45028">
        <ele>23.56506</ele>
        <time>2015-08-06T13:32:26.043000Z</time>
      </trkpt>
      <trkpt lat="31.26578" lon="121.45023">
        <ele>24.09233</ele>
        <time>2015-08-06T13:32:30.038000Z</time>
      </trkpt>
      <trkpt lat="31.26588" lon="121.45018">
        <ele>23.66345</ele>
        <time>2015-08-06T13:32:34.039000Z</time>
      </trkpt>
      <trkpt lat="31.26597" lon="121.45012">
        <ele>23.95509</ele>
        <time>2015-08-06T13:32:38.051000Z</time>
      </trkpt>
      <trkpt lat="31.26605" lon="121.45006">
        <ele>24.0005</ele>
        <time>2015-08-06T13:32:42.023000Z</time>
      </trkpt>
      <trkpt lat="31.26615" lon="121.45">
        <ele>23.49644</ele>
        <time>2015-08-06T13:32:46.026000Z</time>
      </trkpt>
      <trkpt lat="31.26626" lon="121.44998">
        <ele>22.69322</ele>
        <time>2015-08-06T13:32:50.033000Z</time>
      </trkpt>
      <trkpt lat="31.26636" lon="121.44995">
        <ele>23.09936</ele>
        <time>2015-08-06T13:32:53.026000Z</time>
      </trkpt>
      <trkpt lat="31.26646" lon="121.44993">
        <ele>23.67657</ele>
        <time>2015-08-06T13:32:57.040000Z</time>
      </trkpt>
      <trkpt lat="31.26655" lon="121.44985">
        <ele>23.70734</ele>
        <time>2015-08-06T13:33:02.038000Z</time>
      </trkpt>
      <trkpt lat="31.26661" lon="121.44977">
        <ele>23.48332</ele>
        <time>2015-08-06T13:33:06.050000Z</time>
      </trkpt>
      <trkpt lat="31.26669" lon="121.4497">
        <ele>22.63318</ele>
        <time>2015-08-06T13:33:10.050000Z</time>
      </trkpt>
      <trkpt lat="31.26678" lon="121.44965">
        <ele>22.90209</ele>
        <time>2015-08-06T13:33:14.043000Z</time>
      </trkpt>
      <trkpt lat="31.26686" lon="121.44959">
        <ele>22.79765</ele>
        <time>2015-08-06T13:33:18.065000Z</time>
      </trkpt>
      <trkpt lat="31.26695" lon="121.44951">
        <ele>22.6236</ele>
        <time>2015-08-06T13:33:23.047000Z</time>
      </trkpt>
      <trkpt lat="31.26702" lon="121.44945">
        <ele>22.67909</ele>
        <time>2015-08-06T13:33:28.031000Z</time>
      </trkpt>
      <trkpt lat="31.26711" lon="121.44936">
        <ele>22.87434</ele>
        <time>2015-08-06T13:33:33.034000Z</time>
      </trkpt>
      <trkpt lat="31.26719" lon="121.44927">
        <ele>22.6806</ele>
        <time>2015-08-06T13:33:37.040000Z</time>
      </trkpt>
      <trkpt lat="31.26727" lon="121.44922">
        <ele>22.73862</ele>
        <time>2015-08-06T13:33:40.046000Z</time>
      </trkpt>
      <trkpt lat="31.26736" lon="121.44915">
        <ele>22.7472</ele>
        <time>2015-08-06T13:33:44.047000Z</time>
      </trkpt>
      <trkpt lat="31.26745" lon="121.4491">
        <ele>23.05042</ele>
        <time>2015-08-06T13:33:47.044000Z</time>
      </trkpt>
      <trkpt lat="31.26754" lon="121.44902">
        <ele>23.07666</ele>
        <time>2015-08-06T13:33:51.044000Z</time>
      </trkpt>
      <trkpt lat="31.26762" lon="121.44897">
        <ele>23.39401</ele>
        <time>2015-08-06T13:33:54.053000Z</time>
      </trkpt>
      <trkpt lat="31.26771" lon="121.44891">
        <ele>23.35113</ele>
        <time>2015-08-06T13:33:58.033000Z</time>
      </trkpt>
      <trkpt lat="31.2678" lon="121.44886">
        <ele>23.6468</ele>
        <time>2015-08-06T13:34:02.052000Z</time>
      </trkpt>
      <trkpt lat="31.26789" lon="121.44882">
        <ele>23.64377</ele>
        <time>2015-08-06T13:34:06.059000Z</time>
      </trkpt>
      <trkpt lat="31.26798" lon="121.4488">
        <ele>23.89</ele>
        <time>2015-08-06T13:34:09.055000Z</time>
      </trkpt>
      <trkpt lat="31.26794" lon="121.44892">
        <ele>23.00956</ele>
        <time>2015-08-06T13:34:13.052000Z</time>
      </trkpt>
      <trkpt lat="31.26785" lon="121.44899">
        <ele>22.99997</ele>
        <time>2015-08-06T13:34:17.052000Z</time>
      </trkpt>
      <trkpt lat="31.26776" lon="121.44904">
        <ele>23.23458</ele>
        <time>2015-08-06T13:34:21.052000Z</time>
      </trkpt>
      <trkpt lat="31.26766" lon="121.44909">
        <ele>23.44901</ele>
        <time>2015-08-06T13:34:24.035000Z</time>
      </trkpt>
      <trkpt lat="31.26756" lon="121.44914">
        <ele>25.07481</ele>
        <time>2015-08-06T13:34:28.046000Z</time>
      </trkpt>
      <trkpt lat="31.26748" lon="121.44919">
        <ele>25.23478</ele>
        <time>2015-08-06T13:34:31.043000Z</time>
      </trkpt>
      <trkpt lat="31.2674" lon="121.44926">
        <ele>25.39273</ele>
        <time>2015-08-06T13:34:35.038000Z</time>
      </trkpt>
      <trkpt lat="31.26729" lon="121.44931">
        <ele>24.96631</ele>
        <time>2015-08-06T13:34:39.041000Z</time>
      </trkpt>
      <trkpt lat="31.2672" lon="121.44938">
        <ele>24.41022</ele>
        <time>2015-08-06T13:34:43.041000Z</time>
      </trkpt>
      <trkpt lat="31.26712" lon="121.44944">
        <ele>24.01715</ele>
        <time>2015-08-06T13:34:47.049000Z</time>
      </trkpt>
      <trkpt lat="31.26704" lon="121.44951">
        <ele>23.64528</ele>
        <time>2015-08-06T13:34:51.055000Z</time>
      </trkpt>
      <trkpt lat="31.26697" lon="121.44958">
        <ele>23.65891</ele>
        <time>2015-08-06T13:34:55.053000Z</time>
      </trkpt>
      <trkpt lat="31.26689" lon="121.44963">
        <ele>23.99495</ele>
        <time>2015-08-06T13:34:59.061000Z</time>
      </trkpt>
      <trkpt lat="31.26679" lon="121.44969">
        <ele>24.36885</ele>
        <time>2015-08-06T13:35:03.043000Z</time>
      </trkpt>
      <trkpt lat="31.26669" lon="121.44977">
        <ele>23.89656</ele>
        <time>2015-08-06T13:35:07.055000Z</time>
      </trkpt>
      <trkpt lat="31.26662" lon="121.44985">
        <ele>23.98839</ele>
        <time>2015-08-06T13:35:11.051000Z</time>
      </trkpt>
      <trkpt lat="31.26652" lon="121.44993">
        <ele>24.01513</ele>
        <time>2015-08-06T13:35:16.054000Z</time>
      </trkpt>
      <trkpt lat="31.26642" lon="121.44997">
        <ele>24.46321</ele>
        <time>2015-08-06T13:35:20.057000Z</time>
      </trkpt>
      <trkpt lat="31.26633" lon="121.45002">
        <ele>24.18619</ele>
        <time>2015-08-06T13:35:24.058000Z</time>
      </trkpt>
      <trkpt lat="31.26623" lon="121.45006">
        <ele>23.69423</ele>
        <time>2015-08-06T13:35:28.046000Z</time>
      </trkpt>
      <trkpt lat="31.26617" lon="121.45015">
        <ele>23.69019</ele>
        <time>2015-08-06T13:35:32.046000Z</time>
      </trkpt>
      <trkpt lat="31.26606" lon="121.45021">
        <ele>23.55345</ele>
        <time>2015-08-06T13:35:36.058000Z</time>
      </trkpt>
      <trkpt lat="31.26597" lon="121.45026">
        <ele>23.42025</ele>
        <time>2015-08-06T13:35:41.054000Z</time>
      </trkpt>
      <trkpt lat="31.26589" lon="121.45031">
        <ele>23.53024</ele>
        <time>2015-08-06T13:35:45.058000Z</time>
      </trkpt>
      <trkpt lat="31.26581" lon="121.45039">
        <ele>23.5807</ele>
        <time>2015-08-06T13:35:49.056000Z</time>
      </trkpt>
      <trkpt lat="31.26574" lon="121.45047">
        <ele>23.61703</ele>
        <time>2015-08-06T13:35:53.063000Z</time>
      </trkpt>
      <trkpt lat="31.26565" lon="121.45051">
        <ele>23.4253</ele>
        <time>2015-08-06T13:35:56.052000Z</time>
      </trkpt>
      <trkpt lat="31.26557" lon="121.45055">
        <ele>23.5363</ele>
        <time>2015-08-06T13:36:00.077000Z</time>
      </trkpt>
      <trkpt lat="31.26546" lon="121.45062">
        <ele>23.63872</ele>
        <time>2015-08-06T13:36:04.055000Z</time>
      </trkpt>
      <trkpt lat="31.26539" lon="121.45069">
        <ele>23.72097</ele>
        <time>2015-08-06T13:36:09.053000Z</time>
      </trkpt>
      <trkpt lat="31.2653" lon="121.45075">
        <ele>23.74317</ele>
        <time>2015-08-06T13:36:14.063000Z</time>
      </trkpt>
      <trkpt lat="31.26522" lon="121.45065">
        <ele>23.44901</ele>
        <time>2015-08-06T13:36:18.060000Z</time>
      </trkpt>
      <trkpt lat="31.26525" lon="121.45054">
        <ele>23.20128</ele>
        <time>2015-08-06T13:36:22.055000Z</time>
      </trkpt>
      <trkpt lat="31.26533" lon="121.45048">
        <ele>23.30168</ele>
        <time>2015-08-06T13:36:25.059000Z</time>
      </trkpt>
      <trkpt lat="31.26544" lon="121.45043">
        <ele>23.30067</ele>
        <time>2015-08-06T13:36:29.056000Z</time>
      </trkpt>
      <trkpt lat="31.26552" lon="121.45037">
        <ele>23.24669</ele>
        <time>2015-08-06T13:36:32.041000Z</time>
      </trkpt>
      <trkpt lat="31.26562" lon="121.45032">
        <ele>25.64505</ele>
        <time>2015-08-06T13:36:36.045000Z</time>
      </trkpt>
      <trkpt lat="31.26571" lon="121.45029">
        <ele>27.25908</ele>
        <time>2015-08-06T13:36:40.054000Z</time>
      </trkpt>
      <trkpt lat="31.2658" lon="121.45023">
        <ele>24.18568</ele>
        <time>2015-08-06T13:36:44.060000Z</time>
      </trkpt>
      <trkpt lat="31.26589" lon="121.45017">
        <ele>23.81683</ele>
        <time>2015-08-06T13:36:48.072000Z</time>
      </trkpt>
      <trkpt lat="31.26597" lon="121.45011">
        <ele>24.77758</ele>
        <time>2015-08-06T13:36:52.051000Z</time>
      </trkpt>
      <trkpt lat="31.26606" lon="121.45006">
        <ele>24.97993</ele>
        <time>2015-08-06T13:36:56.055000Z</time>
      </trkpt>
      <trkpt lat="31.26615" lon="121.45001">
        <ele>24.31385</ele>
        <time>2015-08-06T13:37:00.051000Z</time>
      </trkpt>
      <trkpt lat="31.26624" lon="121.44995">
        <ele>21.88199</ele>
        <time>2015-08-06T13:37:04.054000Z</time>
      </trkpt>
      <trkpt lat="31.26633" lon="121.44989">
        <ele>21.52735</ele>
        <time>2015-08-06T13:37:08.063000Z</time>
      </trkpt>
      <trkpt lat="31.26642" lon="121.44983">
        <ele>21.66204</ele>
        <time>2015-08-06T13:37:12.057000Z</time>
      </trkpt>
      <trkpt lat="31.26651" lon="121.44978">
        <ele>21.63883</ele>
        <time>2015-08-06T13:37:16.054000Z</time>
      </trkpt>
      <trkpt lat="31.2666" lon="121.44973">
        <ele>22.10547</ele>
        <time>2015-08-06T13:37:20.052000Z</time>
      </trkpt>
      <trkpt lat="31.26669" lon="121.44967">
        <ele>22.6246</ele>
        <time>2015-08-06T13:37:24.053000Z</time>
      </trkpt>
      <trkpt lat="31.26679" lon="121.44961">
        <ele>22.63823</ele>
        <time>2015-08-06T13:37:28.044000Z</time>
      </trkpt>
      <trkpt lat="31.26688" lon="121.44953">
        <ele>23.39906</ele>
        <time>2015-08-06T13:37:32.038000Z</time>
      </trkpt>
      <trkpt lat="31.26696" lon="121.44946">
        <ele>24.28509</ele>
        <time>2015-08-06T13:37:38.045000Z</time>
      </trkpt>
      <trkpt lat="31.26701" lon="121.44935">
        <ele>23.17605</ele>
        <time>2015-08-06T13:37:43.042000Z</time>
      </trkpt>
      <trkpt lat="31.26711" lon="121.44928">
        <ele>23.02015</ele>
        <time>2015-08-06T13:37:47.082000Z</time>
      </trkpt>
      <trkpt lat="31.26721" lon="121.44922">
        <ele>22.89149</ele>
        <time>2015-08-06T13:37:50.050000Z</time>
      </trkpt>
      <trkpt lat="31.26731" lon="121.44916">
        <ele>23.03327</ele>
        <time>2015-08-06T13:37:54.048000Z</time>
      </trkpt>
      <trkpt lat="31.2674" lon="121.4491">
        <ele>22.725</ele>
        <time>2015-08-06T13:37:58.045000Z</time>
      </trkpt>
      <trkpt lat="31.2675" lon="121.44904">
        <ele>23.44296</ele>
        <time>2015-08-06T13:38:02.052000Z</time>
      </trkpt>
      <trkpt lat="31.26758" lon="121.44899">
        <ele>23.41268</ele>
        <time>2015-08-06T13:38:06.052000Z</time>
      </trkpt>
      <trkpt lat="31.26768" lon="121.44892">
        <ele>23.38745</ele>
        <time>2015-08-06T13:38:10.048000Z</time>
      </trkpt>
      <trkpt lat="31.26778" lon="121.44885">
        <ele>23.31127</ele>
        <time>2015-08-06T13:38:14.039000Z</time>
      </trkpt>
      <trkpt lat="31.26787" lon="121.44878">
        <ele>23.19775</ele>
        <time>2015-08-06T13:38:18.155000Z</time>
      </trkpt>
      <trkpt lat="31.26796" lon="121.44881">
        <ele>22.71188</ele>
        <time>2015-08-06T13:38:24.050000Z</time>
      </trkpt>
      <trkpt lat="31.26792" lon="121.44891">
        <ele>22.43441</ele>
        <time>2015-08-06T13:38:29.052000Z</time>
      </trkpt>
      <trkpt lat="31.26783" lon="121.44897">
        <ele>22.53783</ele>
        <time>2015-08-06T13:38:33.056000Z</time>
      </trkpt>
      <trkpt lat="31.26774" lon="121.44906">
        <ele>22.44298</ele>
        <time>2015-08-06T13:38:37.048000Z</time>
      </trkpt>
      <trkpt lat="31.26766" lon="121.44913">
        <ele>22.62561</ele>
        <time>2015-08-06T13:38:40.053000Z</time>
      </trkpt>
      <trkpt lat="31.26755" lon="121.44915">
        <ele>23.07262</ele>
        <time>2015-08-06T13:38:44.051000Z</time>
      </trkpt>
      <trkpt lat="31.26746" lon="121.44921">
        <ele>23.8572</ele>
        <time>2015-08-06T13:38:48.053000Z</time>
      </trkpt>
      <trkpt lat="31.26737" lon="121.44926">
        <ele>23.59836</ele>
        <time>2015-08-06T13:38:53.048000Z</time>
      </trkpt>
      <trkpt lat="31.26728" lon="121.44933">
        <ele>22.98433</ele>
        <time>2015-08-06T13:38:57.045000Z</time>
      </trkpt>
      <trkpt lat="31.26718" lon="121.44941">
        <ele>23.32539</ele>
        <time>2015-08-06T13:39:01.064000Z</time>
      </trkpt>
      <trkpt lat="31.26709" lon="121.44948">
        <ele>23.4586</ele>
        <time>2015-08-06T13:39:05.050000Z</time>
      </trkpt>
      <trkpt lat="31.26701" lon="121.44954">
        <ele>23.32741</ele>
        <time>2015-08-06T13:39:09.050000Z</time>
      </trkpt>
      <trkpt lat="31.26693" lon="121.4496">
        <ele>23.08019</ele>
        <time>2015-08-06T13:39:13.066000Z</time>
      </trkpt>
      <trkpt lat="31.26683" lon="121.44966">
        <ele>22.7921</ele>
        <time>2015-08-06T13:39:18.043000Z</time>
      </trkpt>
      <trkpt lat="31.26674" lon="121.44973">
        <ele>22.8476</ele>
        <time>2015-08-06T13:39:22.047000Z</time>
      </trkpt>
      <trkpt lat="31.26665" lon="121.44981">
        <ele>23.31127</ele>
        <time>2015-08-06T13:39:26.050000Z</time>
      </trkpt>
      <trkpt lat="31.26656" lon="121.44989">
        <ele>23.0368</ele>
        <time>2015-08-06T13:39:31.060000Z</time>
      </trkpt>
      <trkpt lat="31.26647" lon="121.44992">
        <ele>23.14679</ele>
        <time>2015-08-06T13:39:35.051000Z</time>
      </trkpt>
      <trkpt lat="31.26637" lon="121.44995">
        <ele>23.08675</ele>
        <time>2015-08-06T13:39:39.046000Z</time>
      </trkpt>
      <trkpt lat="31.26629" lon="121.45">
        <ele>23.79211</ele>
        <time>2015-08-06T13:39:44.050000Z</time>
      </trkpt>
      <trkpt lat="31.26623" lon="121.45009">
        <ele>23.96316</ele>
        <time>2015-08-06T13:39:48.050000Z</time>
      </trkpt>
      <trkpt lat="31.26614" lon="121.45017">
        <ele>22.97827</ele>
        <time>2015-08-06T13:39:52.044000Z</time>
      </trkpt>
      <trkpt lat="31.26605" lon="121.45023">
        <ele>21.53996</ele>
        <time>2015-08-06T13:39:56.069000Z</time>
      </trkpt>
      <trkpt lat="31.26594" lon="121.45027">
        <ele>22.75174</ele>
        <time>2015-08-06T13:40:02.036000Z</time>
      </trkpt>
      <trkpt lat="31.26586" lon="121.45033">
        <ele>22.90007</ele>
        <time>2015-08-06T13:40:06.038000Z</time>
      </trkpt>
      <trkpt lat="31.26577" lon="121.45042">
        <ele>23.02318</ele>
        <time>2015-08-06T13:40:10.035000Z</time>
      </trkpt>
      <trkpt lat="31.26569" lon="121.4505">
        <ele>23.14931</ele>
        <time>2015-08-06T13:40:14.051000Z</time>
      </trkpt>
      <trkpt lat="31.26559" lon="121.45054">
        <ele>23.4253</ele>
        <time>2015-08-06T13:40:18.049000Z</time>
      </trkpt>
      <trkpt lat="31.2655" lon="121.4506">
        <ele>23.76487</ele>
        <time>2015-08-06T13:40:23.043000Z</time>
      </trkpt>
      <trkpt lat="31.26541" lon="121.45066">
        <ele>23.73257</ele>
        <time>2015-08-06T13:40:27.052000Z</time>
      </trkpt>
      <trkpt lat="31.26531" lon="121.45072">
        <ele>23.51057</ele>
        <time>2015-08-06T13:40:32.059000Z</time>
      </trkpt>
      <trkpt lat="31.26521" lon="121.45065">
        <ele>23.31026</ele>
        <time>2015-08-06T13:40:36.045000Z</time>
      </trkpt>
      <trkpt lat="31.26523" lon="121.45054">
        <ele>24.01009</ele>
        <time>2015-08-06T13:40:40.047000Z</time>
      </trkpt>
      <trkpt lat="31.26533" lon="121.45049">
        <ele>23.65184</ele>
        <time>2015-08-06T13:40:44.048000Z</time>
      </trkpt>
      <trkpt lat="31.26541" lon="121.45042">
        <ele>23.57565</ele>
        <time>2015-08-06T13:40:48.045000Z</time>
      </trkpt>
      <trkpt lat="31.2655" lon="121.45037">
        <ele>23.76991</ele>
        <time>2015-08-06T13:40:52.049000Z</time>
      </trkpt>
      <trkpt lat="31.26559" lon="121.45032">
        <ele>24.10344</ele>
        <time>2015-08-06T13:40:56.049000Z</time>
      </trkpt>
      <trkpt lat="31.26568" lon="121.45025">
        <ele>24.24825</ele>
        <time>2015-08-06T13:41:00.063000Z</time>
      </trkpt>
      <trkpt lat="31.26578" lon="121.45019">
        <ele>24.1544</ele>
        <time>2015-08-06T13:41:04.047000Z</time>
      </trkpt>
      <trkpt lat="31.26588" lon="121.45013">
        <ele>24.42738</ele>
        <time>2015-08-06T13:41:08.058000Z</time>
      </trkpt>
      <trkpt lat="31.26597" lon="121.45007">
        <ele>24.21646</ele>
        <time>2015-08-06T13:41:12.047000Z</time>
      </trkpt>
      <trkpt lat="31.26606" lon="121.45003">
        <ele>23.58019</ele>
        <time>2015-08-06T13:41:16.048000Z</time>
      </trkpt>
      <trkpt lat="31.26615" lon="121.44998">
        <ele>23.32792</ele>
        <time>2015-08-06T13:41:20.057000Z</time>
      </trkpt>
      <trkpt lat="31.26625" lon="121.44994">
        <ele>22.88443</ele>
        <time>2015-08-06T13:41:24.047000Z</time>
      </trkpt>
      <trkpt lat="31.26634" lon="121.44989">
        <ele>22.74216</ele>
        <time>2015-08-06T13:41:28.040000Z</time>
      </trkpt>
      <trkpt lat="31.26642" lon="121.44984">
        <ele>22.61855</ele>
        <time>2015-08-06T13:41:33.048000Z</time>
      </trkpt>
      <trkpt lat="31.26653" lon="121.44979">
        <ele>22.80875</ele>
        <time>2015-08-06T13:41:38.041000Z</time>
      </trkpt>
      <trkpt lat="31.26663" lon="121.44975">
        <ele>22.2316</ele>
        <time>2015-08-06T13:41:42.048000Z</time>
      </trkpt>
      <trkpt lat="31.26671" lon="121.44967">
        <ele>22.45761</ele>
        <time>2015-08-06T13:41:46.048000Z</time>
      </trkpt>
      <trkpt lat="31.2668" lon="121.44959">
        <ele>22.68767</ele>
        <time>2015-08-06T13:41:50.053000Z</time>
      </trkpt>
      <trkpt lat="31.2669" lon="121.44952">
        <ele>22.65639</ele>
        <time>2015-08-06T13:41:54.051000Z</time>
      </trkpt>
      <trkpt lat="31.26698" lon="121.44945">
        <ele>22.74064</ele>
        <time>2015-08-06T13:41:59.042000Z</time>
      </trkpt>
      <trkpt lat="31.26705" lon="121.44938">
        <ele>22.60543</ele>
        <time>2015-08-06T13:42:04.043000Z</time>
      </trkpt>
      <trkpt lat="31.26715" lon="121.44929">
        <ele>22.25783</ele>
        <time>2015-08-06T13:42:08.049000Z</time>
      </trkpt>
      <trkpt lat="31.26723" lon="121.44924">
        <ele>22.26086</ele>
        <time>2015-08-06T13:42:11.054000Z</time>
      </trkpt>
      <trkpt lat="31.26732" lon="121.44919">
        <ele>22.13171</ele>
        <time>2015-08-06T13:42:15.053000Z</time>
      </trkpt>
      <trkpt lat="31.26736" lon="121.44928">
        <ele>22.23967</ele>
        <time>2015-08-06T13:42:21.050000Z</time>
      </trkpt>
      <trkpt lat="31.26727" lon="121.44936">
        <ele>22.74922</ele>
        <time>2015-08-06T13:42:25.066000Z</time>
      </trkpt>
      <trkpt lat="31.26719" lon="121.44942">
        <ele>23.19169</ele>
        <time>2015-08-06T13:42:29.044000Z</time>
      </trkpt>
      <trkpt lat="31.26711" lon="121.44947">
        <ele>22.84356</ele>
        <time>2015-08-06T13:42:33.053000Z</time>
      </trkpt>
      <trkpt lat="31.26702" lon="121.44955">
        <ele>23.4369</ele>
        <time>2015-08-06T13:42:38.053000Z</time>
      </trkpt>
      <trkpt lat="31.26693" lon="121.44961">
        <ele>22.54741</ele>
        <time>2015-08-06T13:42:43.046000Z</time>
      </trkpt>
      <trkpt lat="31.26684" lon="121.44967">
        <ele>22.75376</ele>
        <time>2015-08-06T13:42:47.054000Z</time>
      </trkpt>
      <trkpt lat="31.26674" lon="121.44973">
        <ele>23.05849</ele>
        <time>2015-08-06T13:42:51.056000Z</time>
      </trkpt>
      <trkpt lat="31.26666" lon="121.44979">
        <ele>23.20683</ele>
        <time>2015-08-06T13:42:55.058000Z</time>
      </trkpt>
      <trkpt lat="31.26658" lon="121.44984">
        <ele>23.35567</ele>
        <time>2015-08-06T13:42:59.057000Z</time>
      </trkpt>
      <trkpt lat="31.2665" lon="121.4499">
        <ele>22.67203</ele>
        <time>2015-08-06T13:43:03.045000Z</time>
      </trkpt>
      <trkpt lat="31.26642" lon="121.44994">
        <ele>24.00151</ele>
        <time>2015-08-06T13:43:07.069000Z</time>
      </trkpt>
      <trkpt lat="31.26631" lon="121.45">
        <ele>24.15642</ele>
        <time>2015-08-06T13:43:12.063000Z</time>
      </trkpt>
      <trkpt lat="31.26623" lon="121.45005">
        <ele>23.24265</ele>
        <time>2015-08-06T13:43:16.056000Z</time>
      </trkpt>
      <trkpt lat="31.26614" lon="121.4501">
        <ele>24.10394</ele>
        <time>2015-08-06T13:43:20.053000Z</time>
      </trkpt>
      <trkpt lat="31.26605" lon="121.45018">
        <ele>22.15744</ele>
        <time>2015-08-06T13:43:24.048000Z</time>
      </trkpt>
      <trkpt lat="31.26596" lon="121.45022">
        <ele>22.669</ele>
        <time>2015-08-06T13:43:29.039000Z</time>
      </trkpt>
      <trkpt lat="31.26588" lon="121.45029">
        <ele>22.7578</ele>
        <time>2015-08-06T13:43:33.054000Z</time>
      </trkpt>
      <trkpt lat="31.26578" lon="121.45035">
        <ele>22.8471</ele>
        <time>2015-08-06T13:43:38.050000Z</time>
      </trkpt>
      <trkpt lat="31.2657" lon="121.45039">
        <ele>22.82792</ele>
        <time>2015-08-06T13:43:41.057000Z</time>
      </trkpt>
      <trkpt lat="31.26561" lon="121.45045">
        <ele>23.28453</ele>
        <time>2015-08-06T13:43:45.052000Z</time>
      </trkpt>
      <trkpt lat="31.26554" lon="121.45052">
        <ele>23.40966</ele>
        <time>2015-08-06T13:43:49.071000Z</time>
      </trkpt>
      <trkpt lat="31.26545" lon="121.45059">
        <ele>23.79615</ele>
        <time>2015-08-06T13:43:53.051000Z</time>
      </trkpt>
      <trkpt lat="31.26536" lon="121.45064">
        <ele>23.93238</ele>
        <time>2015-08-06T13:43:57.049000Z</time>
      </trkpt>
      <trkpt lat="31.26527" lon="121.45067">
        <ele>24.53537</ele>
        <time>2015-08-06T13:44:01.049000Z</time>
      </trkpt>
      <trkpt lat="31.26518" lon="121.45065">
        <ele>23.4919</ele>
        <time>2015-08-06T13:44:05.053000Z</time>
      </trkpt>
      <trkpt lat="31.26519" lon="121.45054">
        <ele>22.89402</ele>
        <time>2015-08-06T13:44:09.055000Z</time>
      </trkpt>
      <trkpt lat="31.26528" lon="121.45049">
        <ele>22.85164</ele>
        <time>2015-08-06T13:44:12.056000Z</time>
      </trkpt>
      <trkpt lat="31.26539" lon="121.45045">
        <ele>22.96717</ele>
        <time>2015-08-06T13:44:16.057000Z</time>
      </trkpt>
      <trkpt lat="31.26546" lon="121.45038">
        <ele>23.03781</ele>
        <time>2015-08-06T13:44:19.071000Z</time>
      </trkpt>
      <trkpt lat="31.26555" lon="121.45031">
        <ele>22.66244</ele>
        <time>2015-08-06T13:44:23.063000Z</time>
      </trkpt>
      <trkpt lat="31.26564" lon="121.45027">
        <ele>22.81026</ele>
        <time>2015-08-06T13:44:27.046000Z</time>
      </trkpt>
      <trkpt lat="31.26573" lon="121.4502">
        <ele>22.85214</ele>
        <time>2015-08-06T13:44:31.054000Z</time>
      </trkpt>
      <trkpt lat="31.26581" lon="121.45014">
        <ele>22.8809</ele>
        <time>2015-08-06T13:44:35.054000Z</time>
      </trkpt>
      <trkpt lat="31.2659" lon="121.45008">
        <ele>22.71188</ele>
        <time>2015-08-06T13:44:39.046000Z</time>
      </trkpt>
      <trkpt lat="31.26598" lon="121.45002">
        <ele>22.43793</ele>
        <time>2015-08-06T13:44:43.057000Z</time>
      </trkpt>
      <trkpt lat="31.26607" lon="121.44998">
        <ele>22.15189</ele>
        <time>2015-08-06T13:44:47.058000Z</time>
      </trkpt>
      <trkpt lat="31.26615" lon="121.44994">
        <ele>22.20032</ele>
        <time>2015-08-06T13:44:51.069000Z</time>
      </trkpt>
      <trkpt lat="31.26625" lon="121.44989">
        <ele>21.93445</ele>
        <time>2015-08-06T13:44:56.073000Z</time>
      </trkpt>
      <trkpt lat="31.26634" lon="121.44985">
        <ele>21.89157</ele>
        <time>2015-08-06T13:45:00.071000Z</time>
      </trkpt>
      <trkpt lat="31.26644" lon="121.44979">
        <ele>22.17308</ele>
        <time>2015-08-06T13:45:04.057000Z</time>
      </trkpt>
      <trkpt lat="31.26653" lon="121.44973">
        <ele>22.39657</ele>
        <time>2015-08-06T13:45:08.061000Z</time>
      </trkpt>
      <trkpt lat="31.26661" lon="121.44968">
        <ele>22.21545</ele>
        <time>2015-08-06T13:45:12.053000Z</time>
      </trkpt>
      <trkpt lat="31.2667" lon="121.44961">
        <ele>22.02425</ele>
        <time>2015-08-06T13:45:16.052000Z</time>
      </trkpt>
      <trkpt lat="31.26679" lon="121.44954">
        <ele>21.96724</ele>
        <time>2015-08-06T13:45:20.055000Z</time>
      </trkpt>
      <trkpt lat="31.26688" lon="121.44949">
        <ele>22.15138</ele>
        <time>2015-08-06T13:45:24.058000Z</time>
      </trkpt>
      <trkpt lat="31.26697" lon="121.44945">
        <ele>22.3108</ele>
        <time>2015-08-06T13:45:29.045000Z</time>
      </trkpt>
      <trkpt lat="31.26705" lon="121.4494">
        <ele>22.18266</ele>
        <time>2015-08-06T13:45:33.048000Z</time>
      </trkpt>
      <trkpt lat="31.26715" lon="121.44934">
        <ele>22.03535</ele>
        <time>2015-08-06T13:45:37.048000Z</time>
      </trkpt>
      <trkpt lat="31.26723" lon="121.44926">
        <ele>21.96523</ele>
        <time>2015-08-06T13:45:41.048000Z</time>
      </trkpt>
      <trkpt lat="31.26731" lon="121.44921">
        <ele>21.84668</ele>
        <time>2015-08-06T13:45:45.061000Z</time>
      </trkpt>
      <trkpt lat="31.26741" lon="121.44914">
        <ele>22.06411</ele>
        <time>2015-08-06T13:45:49.067000Z</time>
      </trkpt>
      <trkpt lat="31.26749" lon="121.44909">
        <ele>22.14432</ele>
        <time>2015-08-06T13:45:53.061000Z</time>
      </trkpt>
      <trkpt lat="31.26752" lon="121.4492">
        <ele>22.29768</ele>
        <time>2015-08-06T13:45:58.054000Z</time>
      </trkpt>
      <trkpt lat="31.26744" lon="121.44926">
        <ele>22.24572</ele>
        <time>2015-08-06T13:46:02.056000Z</time>
      </trkpt>
      <trkpt lat="31.26734" lon="121.44932">
        <ele>22.78302</ele>
        <time>2015-08-06T13:46:06.057000Z</time>
      </trkpt>
      <trkpt lat="31.26726" lon="121.44937">
        <ele>23.02721</ele>
        <time>2015-08-06T13:46:09.071000Z</time>
      </trkpt>
      <trkpt lat="31.26717" lon="121.44942">
        <ele>23.32893</ele>
        <time>2015-08-06T13:46:13.052000Z</time>
      </trkpt>
      <trkpt lat="31.26708" lon="121.44949">
        <ele>22.78453</ele>
        <time>2015-08-06T13:46:17.036000Z</time>
      </trkpt>
      <trkpt lat="31.267" lon="121.44955">
        <ele>22.48536</ele>
        <time>2015-08-06T13:46:21.043000Z</time>
      </trkpt>
      <trkpt lat="31.26691" lon="121.44959">
        <ele>22.82439</ele>
        <time>2015-08-06T13:46:25.042000Z</time>
      </trkpt>
      <trkpt lat="31.26682" lon="121.44964">
        <ele>22.77142</ele>
        <time>2015-08-06T13:46:29.055000Z</time>
      </trkpt>
      <trkpt lat="31.26673" lon="121.44969">
        <ele>22.7467</ele>
        <time>2015-08-06T13:46:33.057000Z</time>
      </trkpt>
      <trkpt lat="31.26665" lon="121.44975">
        <ele>23.07464</ele>
        <time>2015-08-06T13:46:37.080000Z</time>
      </trkpt>
      <trkpt lat="31.26656" lon="121.4498">
        <ele>23.10491</ele>
        <time>2015-08-06T13:46:42.053000Z</time>
      </trkpt>
      <trkpt lat="31.26648" lon="121.44989">
        <ele>22.78655</ele>
        <time>2015-08-06T13:46:46.051000Z</time>
      </trkpt>
      <trkpt lat="31.26639" lon="121.44996">
        <ele>22.40514</ele>
        <time>2015-08-06T13:46:50.059000Z</time>
      </trkpt>
      <trkpt lat="31.26628" lon="121.45001">
        <ele>22.57415</ele>
        <time>2015-08-06T13:46:55.047000Z</time>
      </trkpt>
      <trkpt lat="31.2662" lon="121.45009">
        <ele>22.50453</ele>
        <time>2015-08-06T13:47:00.053000Z</time>
      </trkpt>
      <trkpt lat="31.26612" lon="121.45017">
        <ele>22.59787</ele>
        <time>2015-08-06T13:47:04.056000Z</time>
      </trkpt>
      <trkpt lat="31.26602" lon="121.45021">
        <ele>22.445</ele>
        <time>2015-08-06T13:47:08.060000Z</time>
      </trkpt>
      <trkpt lat="31.26592" lon="121.45026">
        <ele>22.42785</ele>
        <time>2015-08-06T13:47:13.068000Z</time>
      </trkpt>
      <trkpt lat="31.26583" lon="121.45034">
        <ele>22.98433</ele>
        <time>2015-08-06T13:47:18.041000Z</time>
      </trkpt>
      <trkpt lat="31.26575" lon="121.45039">
        <ele>22.90058</ele>
        <time>2015-08-06T13:47:22.038000Z</time>
      </trkpt>
      <trkpt lat="31.26566" lon="121.45044">
        <ele>22.79917</ele>
        <time>2015-08-06T13:47:26.046000Z</time>
      </trkpt>
      <trkpt lat="31.2656" lon="121.45054">
        <ele>22.79008</ele>
        <time>2015-08-06T13:47:30.035000Z</time>
      </trkpt>
      <trkpt lat="31.26551" lon="121.4506">
        <ele>23.01611</ele>
        <time>2015-08-06T13:47:34.046000Z</time>
      </trkpt>
      <trkpt lat="31.26543" lon="121.45066">
        <ele>23.44598</ele>
        <time>2015-08-06T13:47:37.057000Z</time>
      </trkpt>
      <trkpt lat="31.26535" lon="121.4507">
        <ele>24.71047</ele>
        <time>2015-08-06T13:47:41.054000Z</time>
      </trkpt>
      <trkpt lat="31.26526" lon="121.45076">
        <ele>24.23463</ele>
        <time>2015-08-06T13:47:45.052000Z</time>
      </trkpt>
      <trkpt lat="31.26517" lon="121.4507">
        <ele>25.57945</ele>
        <time>2015-08-06T13:47:50.048000Z</time>
      </trkpt>
      <trkpt lat="31.2652" lon="121.45058">
        <ele>22.42028</ele>
        <time>2015-08-06T13:47:54.056000Z</time>
      </trkpt>
      <trkpt lat="31.2653" lon="121.45052">
        <ele>23.53933</ele>
        <time>2015-08-06T13:47:58.062000Z</time>
      </trkpt>
      <trkpt lat="31.2654" lon="121.45047">
        <ele>22.69322</ele>
        <time>2015-08-06T13:48:02.060000Z</time>
      </trkpt>
      <trkpt lat="31.26549" lon="121.45041">
        <ele>22.72702</ele>
        <time>2015-08-06T13:48:06.056000Z</time>
      </trkpt>
      <trkpt lat="31.26557" lon="121.45035">
        <ele>22.87585</ele>
        <time>2015-08-06T13:48:10.060000Z</time>
      </trkpt>
      <trkpt lat="31.26567" lon="121.4503">
        <ele>23.15587</ele>
        <time>2015-08-06T13:48:15.057000Z</time>
      </trkpt>
      <trkpt lat="31.26575" lon="121.45024">
        <ele>23.64276</ele>
        <time>2015-08-06T13:48:19.065000Z</time>
      </trkpt>
      <trkpt lat="31.26585" lon="121.45019">
        <ele>23.06253</ele>
        <time>2015-08-06T13:48:24.063000Z</time>
      </trkpt>
      <trkpt lat="31.26594" lon="121.45013">
        <ele>22.57365</ele>
        <time>2015-08-06T13:48:28.057000Z</time>
      </trkpt>
      <trkpt lat="31.26602" lon="121.45007">
        <ele>23.6584</ele>
        <time>2015-08-06T13:48:32.053000Z</time>
      </trkpt>
      <trkpt lat="31.2661" lon="121.45001">
        <ele>24.43949</ele>
        <time>2015-08-06T13:48:36.045000Z</time>
      </trkpt>
      <trkpt lat="31.2662" lon="121.44997">
        <ele>23.15486</ele>
        <time>2015-08-06T13:48:40.044000Z</time>
      </trkpt>
      <trkpt lat="31.26629" lon="121.44993">
        <ele>22.63217</ele>
        <time>2015-08-06T13:48:44.067000Z</time>
      </trkpt>
      <trkpt lat="31.26638" lon="121.44986">
        <ele>22.33754</ele>
        <time>2015-08-06T13:48:48.057000Z</time>
      </trkpt>
      <trkpt lat="31.26647" lon="121.44979">
        <ele>22.03535</ele>
        <time>2015-08-06T13:48:52.055000Z</time>
      </trkpt>
      <trkpt lat="31.26655" lon="121.44972">
        <ele>22.11405</ele>
        <time>2015-08-06T13:48:56.062000Z</time>
      </trkpt>
      <trkpt lat="31.26664" lon="121.44968">
        <ele>21.96523</ele>
        <time>2015-08-06T13:49:01.056000Z</time>
      </trkpt>
      <trkpt lat="31.26673" lon="121.44963">
        <ele>22.30525</ele>
        <time>2015-08-06T13:49:05.057000Z</time>
      </trkpt>
      <trkpt lat="31.26682" lon="121.44957">
        <ele>22.6246</ele>
        <time>2015-08-06T13:49:09.052000Z</time>
      </trkpt>
      <trkpt lat="31.26691" lon="121.4495">
        <ele>22.6246</ele>
        <time>2015-08-06T13:49:14.047000Z</time>
      </trkpt>
      <trkpt lat="31.26699" lon="121.44944">
        <ele>24.56363</ele>
        <time>2015-08-06T13:49:18.056000Z</time>
      </trkpt>
      <trkpt lat="31.26709" lon="121.44938">
        <ele>22.51361</ele>
        <time>2015-08-06T13:49:23.056000Z</time>
      </trkpt>
      <trkpt lat="31.26717" lon="121.44932">
        <ele>22.75982</ele>
        <time>2015-08-06T13:49:27.045000Z</time>
      </trkpt>
      <trkpt lat="31.26727" lon="121.44927">
        <ele>22.92227</ele>
        <time>2015-08-06T13:49:30.049000Z</time>
      </trkpt>
      <trkpt lat="31.26734" lon="121.4492">
        <ele>22.65689</ele>
        <time>2015-08-06T13:49:36.062000Z</time>
      </trkpt>
      <trkpt lat="31.26737" lon="121.44931">
        <ele>22.74316</ele>
        <time>2015-08-06T13:49:43.058000Z</time>
      </trkpt>
      <trkpt lat="31.26727" lon="121.44937">
        <ele>23.13821</ele>
        <time>2015-08-06T13:49:47.060000Z</time>
      </trkpt>
      <trkpt lat="31.26718" lon="121.44941">
        <ele>23.90514</ele>
        <time>2015-08-06T13:49:51.058000Z</time>
      </trkpt>
      <trkpt lat="31.26709" lon="121.44947">
        <ele>23.40007</ele>
        <time>2015-08-06T13:49:56.056000Z</time>
      </trkpt>
      <trkpt lat="31.26701" lon="121.44952">
        <ele>22.98887</ele>
        <time>2015-08-06T13:50:00.076000Z</time>
      </trkpt>
      <trkpt lat="31.2669" lon="121.44957">
        <ele>22.64882</ele>
        <time>2015-08-06T13:50:04.054000Z</time>
      </trkpt>
      <trkpt lat="31.26682" lon="121.44963">
        <ele>22.86728</ele>
        <time>2015-08-06T13:50:08.062000Z</time>
      </trkpt>
      <trkpt lat="31.26673" lon="121.4497">
        <ele>22.63318</ele>
        <time>2015-08-06T13:50:12.057000Z</time>
      </trkpt>
      <trkpt lat="31.26665" lon="121.44977">
        <ele>23.40814</ele>
        <time>2015-08-06T13:50:16.059000Z</time>
      </trkpt>
      <trkpt lat="31.26657" lon="121.44985">
        <ele>23.70129</ele>
        <time>2015-08-06T13:50:20.054000Z</time>
      </trkpt>
      <trkpt lat="31.26649" lon="121.44989">
        <ele>23.11197</ele>
        <time>2015-08-06T13:50:24.058000Z</time>
      </trkpt>
      <trkpt lat="31.2664" lon="121.44993">
        <ele>23.79615</ele>
        <time>2015-08-06T13:50:28.039000Z</time>
      </trkpt>
      <trkpt lat="31.26631" lon="121.44997">
        <ele>23.44497</ele>
        <time>2015-08-06T13:50:32.050000Z</time>
      </trkpt>
      <trkpt lat="31.26622" lon="121.45004">
        <ele>23.40007</ele>
        <time>2015-08-06T13:50:37.056000Z</time>
      </trkpt>
      <trkpt lat="31.26616" lon="121.45014">
        <ele>24.6489</ele>
        <time>2015-08-06T13:50:41.042000Z</time>
      </trkpt>
      <trkpt lat="31.26606" lon="121.45019">
        <ele>23.4036</ele>
        <time>2015-08-06T13:50:46.036000Z</time>
      </trkpt>
      <trkpt lat="31.26595" lon="121.45024">
        <ele>22.58727</ele>
        <time>2015-08-06T13:50:51.059000Z</time>
      </trkpt>
      <trkpt lat="31.26586" lon="121.45031">
        <ele>23.2477</ele>
        <time>2015-08-06T13:50:56.036000Z</time>
      </trkpt>
      <trkpt lat="31.26577" lon="121.45038">
        <ele>23.09886</ele>
        <time>2015-08-06T13:51:01.035000Z</time>
      </trkpt>
      <trkpt lat="31.26568" lon="121.45042">
        <ele>23.24719</ele>
        <time>2015-08-06T13:51:05.053000Z</time>
      </trkpt>
      <trkpt lat="31.2656" lon="121.45049">
        <ele>22.91773</ele>
        <time>2015-08-06T13:51:09.055000Z</time>
      </trkpt>
      <trkpt lat="31.26553" lon="121.45058">
        <ele>22.78555</ele>
        <time>2015-08-06T13:51:13.056000Z</time>
      </trkpt>
      <trkpt lat="31.26544" lon="121.45065">
        <ele>22.76789</ele>
        <time>2015-08-06T13:51:17.055000Z</time>
      </trkpt>
      <trkpt lat="31.26536" lon="121.4507">
        <ele>23.09331</ele>
        <time>2015-08-06T13:51:21.065000Z</time>
      </trkpt>
      <trkpt lat="31.26527" lon="121.45074">
        <ele>23.31127</ele>
        <time>2015-08-06T13:51:26.050000Z</time>
      </trkpt>
      <trkpt lat="31.2652" lon="121.45066">
        <ele>23.05698</ele>
        <time>2015-08-06T13:51:31.044000Z</time>
      </trkpt>
      <trkpt lat="31.26525" lon="121.45055">
        <ele>22.80522</ele>
        <time>2015-08-06T13:51:35.047000Z</time>
      </trkpt>
      <trkpt lat="31.26534" lon="121.4505">
        <ele>22.81481</ele>
        <time>2015-08-06T13:51:38.068000Z</time>
      </trkpt>
      <trkpt lat="31.26542" lon="121.45045">
        <ele>22.6246</ele>
        <time>2015-08-06T13:51:41.053000Z</time>
      </trkpt>
      <trkpt lat="31.26551" lon="121.45039">
        <ele>22.87384</ele>
        <time>2015-08-06T13:51:45.056000Z</time>
      </trkpt>
      <trkpt lat="31.2656" lon="121.45034">
        <ele>22.81834</ele>
        <time>2015-08-06T13:51:49.055000Z</time>
      </trkpt>
      <trkpt lat="31.26569" lon="121.45027">
        <ele>24.12967</ele>
        <time>2015-08-06T13:51:54.069000Z</time>
      </trkpt>
      <trkpt lat="31.26577" lon="121.45021">
        <ele>24.73519</ele>
        <time>2015-08-06T13:51:58.061000Z</time>
      </trkpt>
      <trkpt lat="31.26587" lon="121.45015">
        <ele>24.74377</ele>
        <time>2015-08-06T13:52:03.047000Z</time>
      </trkpt>
      <trkpt lat="31.26596" lon="121.4501">
        <ele>23.71945</ele>
        <time>2015-08-06T13:52:07.040000Z</time>
      </trkpt>
      <trkpt lat="31.26605" lon="121.45002">
        <ele>23.55143</ele>
        <time>2015-08-06T13:52:11.055000Z</time>
      </trkpt>
      <trkpt lat="31.26614" lon="121.44997">
        <ele>23.12812</ele>
        <time>2015-08-06T13:52:15.062000Z</time>
      </trkpt>
      <trkpt lat="31.26622" lon="121.44992">
        <ele>23.14326</ele>
        <time>2015-08-06T13:52:19.045000Z</time>
      </trkpt>
      <trkpt lat="31.26631" lon="121.44987">
        <ele>21.89359</ele>
        <time>2015-08-06T13:52:23.058000Z</time>
      </trkpt>
      <trkpt lat="31.26641" lon="121.44981">
        <ele>21.96523</ele>
        <time>2015-08-06T13:52:28.044000Z</time>
      </trkpt>
      <trkpt lat="31.26649" lon="121.44976">
        <ele>22.00861</ele>
        <time>2015-08-06T13:52:32.049000Z</time>
      </trkpt>
      <trkpt lat="31.26658" lon="121.4497">
        <ele>22.02324</ele>
        <time>2015-08-06T13:52:36.056000Z</time>
      </trkpt>
      <trkpt lat="31.26667" lon="121.44965">
        <ele>22.04191</ele>
        <time>2015-08-06T13:52:40.057000Z</time>
      </trkpt>
      <trkpt lat="31.26675" lon="121.44959">
        <ele>21.8386</ele>
        <time>2015-08-06T13:52:44.054000Z</time>
      </trkpt>
      <trkpt lat="31.26684" lon="121.44955">
        <ele>22.09084</ele>
        <time>2015-08-06T13:52:48.057000Z</time>
      </trkpt>
      <trkpt lat="31.26692" lon="121.4495">
        <ele>22.97373</ele>
        <time>2015-08-06T13:52:52.053000Z</time>
      </trkpt>
      <trkpt lat="31.267" lon="121.44944">
        <ele>22.65538</ele>
        <time>2015-08-06T13:52:56.050000Z</time>
      </trkpt>
      <trkpt lat="31.26709" lon="121.44936">
        <ele>23.33902</ele>
        <time>2015-08-06T13:53:01.058000Z</time>
      </trkpt>
      <trkpt lat="31.26717" lon="121.44931">
        <ele>21.57124</ele>
        <time>2015-08-06T13:53:05.051000Z</time>
      </trkpt>
      <trkpt lat="31.26726" lon="121.44927">
        <ele>22.2205</ele>
        <time>2015-08-06T13:53:09.055000Z</time>
      </trkpt>
      <trkpt lat="31.26734" lon="121.4492">
        <ele>22.46266</ele>
        <time>2015-08-06T13:53:14.062000Z</time>
      </trkpt>
      <trkpt lat="31.26742" lon="121.44913">
        <ele>22.29819</ele>
        <time>2015-08-06T13:53:18.058000Z</time>
      </trkpt>
      <trkpt lat="31.2675" lon="121.44906">
        <ele>22.04443</ele>
        <time>2015-08-06T13:53:24.057000Z</time>
      </trkpt>
      <trkpt lat="31.26749" lon="121.44918">
        <ele>22.32947</ele>
        <time>2015-08-06T13:53:31.047000Z</time>
      </trkpt>
      <trkpt lat="31.26742" lon="121.44925">
        <ele>22.85567</ele>
        <time>2015-08-06T13:53:35.044000Z</time>
      </trkpt>
      <trkpt lat="31.26733" lon="121.44931">
        <ele>22.83852</ele>
        <time>2015-08-06T13:53:40.059000Z</time>
      </trkpt>
      <trkpt lat="31.26724" lon="121.44938">
        <ele>22.50504</ele>
        <time>2015-08-06T13:53:45.057000Z</time>
      </trkpt>
      <trkpt lat="31.26716" lon="121.44945">
        <ele>22.36882</ele>
        <time>2015-08-06T13:53:50.058000Z</time>
      </trkpt>
      <trkpt lat="31.26708" lon="121.4495">
        <ele>22.60291</ele>
        <time>2015-08-06T13:53:54.061000Z</time>
      </trkpt>
      <trkpt lat="31.26699" lon="121.44956">
        <ele>22.72904</ele>
        <time>2015-08-06T13:53:58.061000Z</time>
      </trkpt>
      <trkpt lat="31.26691" lon="121.44961">
        <ele>22.57314</ele>
        <time>2015-08-06T13:54:02.054000Z</time>
      </trkpt>
      <trkpt lat="31.26682" lon="121.44968">
        <ele>22.40464</ele>
        <time>2015-08-06T13:54:06.062000Z</time>
      </trkpt>
      <trkpt lat="31.26674" lon="121.44971">
        <ele>22.53833</ele>
        <time>2015-08-06T13:54:10.056000Z</time>
      </trkpt>
      <trkpt lat="31.26665" lon="121.44975">
        <ele>23.08725</ele>
        <time>2015-08-06T13:54:14.046000Z</time>
      </trkpt>
      <trkpt lat="31.26655" lon="121.44982">
        <ele>23.2482</ele>
        <time>2015-08-06T13:54:19.070000Z</time>
      </trkpt>
      <trkpt lat="31.26645" lon="121.44988">
        <ele>22.89805</ele>
        <time>2015-08-06T13:54:24.058000Z</time>
      </trkpt>
      <trkpt lat="31.26638" lon="121.44996">
        <ele>22.25178</ele>
        <time>2015-08-06T13:54:28.047000Z</time>
      </trkpt>
      <trkpt lat="31.26629" lon="121.45003">
        <ele>22.80472</ele>
        <time>2015-08-06T13:54:33.041000Z</time>
      </trkpt>
      <trkpt lat="31.26619" lon="121.45008">
        <ele>23.59836</ele>
        <time>2015-08-06T13:54:38.055000Z</time>
      </trkpt>
      <trkpt lat="31.26611" lon="121.45016">
        <ele>22.46669</ele>
        <time>2015-08-06T13:54:42.064000Z</time>
      </trkpt>
      <trkpt lat="31.26602" lon="121.45021">
        <ele>22.23109</ele>
        <time>2015-08-06T13:54:46.047000Z</time>
      </trkpt>
      <trkpt lat="31.26592" lon="121.45024">
        <ele>22.67859</ele>
        <time>2015-08-06T13:54:50.064000Z</time>
      </trkpt>
      <trkpt lat="31.26583" lon="121.4503">
        <ele>22.54943</ele>
        <time>2015-08-06T13:54:55.049000Z</time>
      </trkpt>
      <trkpt lat="31.26575" lon="121.45038">
        <ele>22.17661</ele>
        <time>2015-08-06T13:55:00.071000Z</time>
      </trkpt>
      <trkpt lat="31.26567" lon="121.45045">
        <ele>22.76082</ele>
        <time>2015-08-06T13:55:04.054000Z</time>
      </trkpt>
      <trkpt lat="31.26558" lon="121.4505">
        <ele>22.91218</ele>
        <time>2015-08-06T13:55:08.065000Z</time>
      </trkpt>
      <trkpt lat="31.2655" lon="121.45057">
        <ele>23.51511</ele>
        <time>2015-08-06T13:55:12.056000Z</time>
      </trkpt>
      <trkpt lat="31.26542" lon="121.45063">
        <ele>24.37541</ele>
        <time>2015-08-06T13:55:16.058000Z</time>
      </trkpt>
      <trkpt lat="31.26533" lon="121.45068">
        <ele>26.02759</ele>
        <time>2015-08-06T13:55:21.056000Z</time>
      </trkpt>
      <trkpt lat="31.26523" lon="121.45064">
        <ele>22.64327</ele>
        <time>2015-08-06T13:55:28.060000Z</time>
      </trkpt>
      <trkpt lat="31.26526" lon="121.45053">
        <ele>23.07918</ele>
        <time>2015-08-06T13:55:32.058000Z</time>
      </trkpt>
      <trkpt lat="31.26536" lon="121.45046">
        <ele>23.34104</ele>
        <time>2015-08-06T13:55:36.058000Z</time>
      </trkpt>
      <trkpt lat="31.26546" lon="121.4504">
        <ele>22.82944</ele>
        <time>2015-08-06T13:55:40.053000Z</time>
      </trkpt>
      <trkpt lat="31.26556" lon="121.45034">
        <ele>22.5797</ele>
        <time>2015-08-06T13:55:44.064000Z</time>
      </trkpt>
      <trkpt lat="31.26564" lon="121.45027">
        <ele>22.9026</ele>
        <time>2015-08-06T13:55:48.058000Z</time>
      </trkpt>
      <trkpt lat="31.26572" lon="121.45022">
        <ele>22.85164</ele>
        <time>2015-08-06T13:55:52.057000Z</time>
      </trkpt>
      <trkpt lat="31.26582" lon="121.45016">
        <ele>23.14275</ele>
        <time>2015-08-06T13:55:57.055000Z</time>
      </trkpt>
      <trkpt lat="31.2659" lon="121.4501">
        <ele>22.74973</ele>
        <time>2015-08-06T13:56:01.053000Z</time>
      </trkpt>
      <trkpt lat="31.26599" lon="121.45004">
        <ele>22.97625</ele>
        <time>2015-08-06T13:56:05.063000Z</time>
      </trkpt>
      <trkpt lat="31.26608" lon="121.44999">
        <ele>23.22701</ele>
        <time>2015-08-06T13:56:09.053000Z</time>
      </trkpt>
      <trkpt lat="31.26617" lon="121.44993">
        <ele>23.20128</ele>
        <time>2015-08-06T13:56:13.056000Z</time>
      </trkpt>
      <trkpt lat="31.26628" lon="121.44988">
        <ele>21.87997</ele>
        <time>2015-08-06T13:56:18.051000Z</time>
      </trkpt>
      <trkpt lat="31.26636" lon="121.44984">
        <ele>22.24421</ele>
        <time>2015-08-06T13:56:22.046000Z</time>
      </trkpt>
      <trkpt lat="31.26645" lon="121.44982">
        <ele>22.29163</ele>
        <time>2015-08-06T13:56:26.046000Z</time>
      </trkpt>
      <trkpt lat="31.26652" lon="121.44973">
        <ele>22.24875</ele>
        <time>2015-08-06T13:56:31.042000Z</time>
      </trkpt>
      <trkpt lat="31.2666" lon="121.44968">
        <ele>22.80573</ele>
        <time>2015-08-06T13:56:36.047000Z</time>
      </trkpt>
      <trkpt lat="31.26669" lon="121.44963">
        <ele>22.77596</ele>
        <time>2015-08-06T13:56:40.055000Z</time>
      </trkpt>
      <trkpt lat="31.26678" lon="121.44956">
        <ele>22.67556</ele>
        <time>2015-08-06T13:56:44.055000Z</time>
      </trkpt>
      <trkpt lat="31.26686" lon="121.4495">
        <ele>22.36024</ele>
        <time>2015-08-06T13:56:48.057000Z</time>
      </trkpt>
      <trkpt lat="31.26695" lon="121.44944">
        <ele>22.34107</ele>
        <time>2015-08-06T13:56:52.055000Z</time>
      </trkpt>
      <trkpt lat="31.26702" lon="121.44937">
        <ele>22.45206</ele>
        <time>2015-08-06T13:56:56.066000Z</time>
      </trkpt>
      <trkpt lat="31.2671" lon="121.44931">
        <ele>22.389</ele>
        <time>2015-08-06T13:57:00.076000Z</time>
      </trkpt>
      <trkpt lat="31.26719" lon="121.44926">
        <ele>22.51361</ele>
        <time>2015-08-06T13:57:03.077000Z</time>
      </trkpt>
      <trkpt lat="31.26727" lon="121.44921">
        <ele>22.51361</ele>
        <time>2015-08-06T13:57:06.060000Z</time>
      </trkpt>
      <trkpt lat="31.26736" lon="121.44913">
        <ele>22.66143</ele>
        <time>2015-08-06T13:57:10.059000Z</time>
      </trkpt>
      <trkpt lat="31.26743" lon="121.44905">
        <ele>22.65689</ele>
        <time>2015-08-06T13:57:14.056000Z</time>
      </trkpt>
      <trkpt lat="31.26747" lon="121.44916">
        <ele>22.33804</ele>
        <time>2015-08-06T13:57:20.062000Z</time>
      </trkpt>
      <trkpt lat="31.26739" lon="121.44924">
        <ele>22.33905</ele>
        <time>2015-08-06T13:57:24.061000Z</time>
      </trkpt>
      <trkpt lat="31.26729" lon="121.44929">
        <ele>22.57768</ele>
        <time>2015-08-06T13:57:28.034000Z</time>
      </trkpt>
      <trkpt lat="31.26721" lon="121.44937">
        <ele>23.65285</ele>
        <time>2015-08-06T13:57:32.038000Z</time>
      </trkpt>
      <trkpt lat="31.26714" lon="121.44942">
        <ele>23.80826</ele>
        <time>2015-08-06T13:57:36.045000Z</time>
      </trkpt>
      <trkpt lat="31.26703" lon="121.44946">
        <ele>23.18009</ele>
        <time>2015-08-06T13:57:40.056000Z</time>
      </trkpt>
      <trkpt lat="31.26695" lon="121.44952">
        <ele>22.68969</ele>
        <time>2015-08-06T13:57:44.069000Z</time>
      </trkpt>
      <trkpt lat="31.26686" lon="121.44959">
        <ele>22.28305</ele>
        <time>2015-08-06T13:57:49.064000Z</time>
      </trkpt>
      <trkpt lat="31.26679" lon="121.44967">
        <ele>22.58576</ele>
        <time>2015-08-06T13:57:53.057000Z</time>
      </trkpt>
      <trkpt lat="31.2667" lon="121.44974">
        <ele>22.86526</ele>
        <time>2015-08-06T13:57:58.046000Z</time>
      </trkpt>
      <trkpt lat="31.26662" lon="121.4498">
        <ele>22.4672</ele>
        <time>2015-08-06T13:58:02.062000Z</time>
      </trkpt>
      <trkpt lat="31.26654" lon="121.44986">
        <ele>22.60745</ele>
        <time>2015-08-06T13:58:06.068000Z</time>
      </trkpt>
      <trkpt lat="31.26645" lon="121.44991">
        <ele>22.52572</ele>
        <time>2015-08-06T13:58:10.065000Z</time>
      </trkpt>
      <trkpt lat="31.26636" lon="121.44997">
        <ele>22.64579</ele>
        <time>2015-08-06T13:58:15.071000Z</time>
      </trkpt>
      <trkpt lat="31.26628" lon="121.45004">
        <ele>22.70684</ele>
        <time>2015-08-06T13:58:20.063000Z</time>
      </trkpt>
      <trkpt lat="31.26618" lon="121.4501">
        <ele>22.56759</ele>
        <time>2015-08-06T13:58:25.055000Z</time>
      </trkpt>
      <trkpt lat="31.26609" lon="121.45016">
        <ele>22.61401</ele>
        <time>2015-08-06T13:58:29.038000Z</time>
      </trkpt>
      <trkpt lat="31.266" lon="121.45021">
        <ele>22.67001</ele>
        <time>2015-08-06T13:58:34.043000Z</time>
      </trkpt>
      <trkpt lat="31.26592" lon="121.45027">
        <ele>22.57819</ele>
        <time>2015-08-06T13:58:39.057000Z</time>
      </trkpt>
      <trkpt lat="31.26584" lon="121.45034">
        <ele>22.82036</ele>
        <time>2015-08-06T13:58:43.046000Z</time>
      </trkpt>
      <trkpt lat="31.26576" lon="121.45042">
        <ele>22.57768</ele>
        <time>2015-08-06T13:58:47.059000Z</time>
      </trkpt>
      <trkpt lat="31.26568" lon="121.45049">
        <ele>22.62662</ele>
        <time>2015-08-06T13:58:51.054000Z</time>
      </trkpt>
      <trkpt lat="31.26559" lon="121.45055">
        <ele>22.7028</ele>
        <time>2015-08-06T13:58:55.062000Z</time>
      </trkpt>
      <trkpt lat="31.2655" lon="121.45061">
        <ele>22.72298</ele>
        <time>2015-08-06T13:58:59.070000Z</time>
      </trkpt>
      <trkpt lat="31.26542" lon="121.45067">
        <ele>23.1594</ele>
        <time>2015-08-06T13:59:03.044000Z</time>
      </trkpt>
      <trkpt lat="31.26534" lon="121.45073">
        <ele>23.06102</ele>
        <time>2015-08-06T13:59:07.065000Z</time>
      </trkpt>
      <trkpt lat="31.26525" lon="121.45071">
        <ele>23.39401</ele>
        <time>2015-08-06T13:59:12.066000Z</time>
      </trkpt>
      <trkpt lat="31.26523" lon="121.45058">
        <ele>23.21642</ele>
        <time>2015-08-06T13:59:16.062000Z</time>
      </trkpt>
      <trkpt lat="31.26531" lon="121.45051">
        <ele>23.09482</ele>
        <time>2015-08-06T13:59:20.056000Z</time>
      </trkpt>
      <trkpt lat="31.26539" lon="121.45045">
        <ele>23.07413</ele>
        <time>2015-08-06T13:59:24.060000Z</time>
      </trkpt>
      <trkpt lat="31.26546" lon="121.45038">
        <ele>23.41369</ele>
        <time>2015-08-06T13:59:28.046000Z</time>
      </trkpt>
      <trkpt lat="31.26557" lon="121.45034">
        <ele>23.37434</ele>
        <time>2015-08-06T13:59:33.045000Z</time>
      </trkpt>
      <trkpt lat="31.26567" lon="121.45029">
        <ele>23.34911</ele>
        <time>2015-08-06T13:59:38.056000Z</time>
      </trkpt>
      <trkpt lat="31.26575" lon="121.45022">
        <ele>23.59281</ele>
        <time>2015-08-06T13:59:42.063000Z</time>
      </trkpt>
      <trkpt lat="31.26583" lon="121.45016">
        <ele>23.71592</ele>
        <time>2015-08-06T13:59:46.054000Z</time>
      </trkpt>
      <trkpt lat="31.26591" lon="121.45011">
        <ele>23.56556</ele>
        <time>2015-08-06T13:59:50.055000Z</time>
      </trkpt>
      <trkpt lat="31.266" lon="121.45005">
        <ele>23.62258</ele>
        <time>2015-08-06T13:59:54.066000Z</time>
      </trkpt>
      <trkpt lat="31.26609" lon="121.44999">
        <ele>23.28301</ele>
        <time>2015-08-06T13:59:58.057000Z</time>
      </trkpt>
      <trkpt lat="31.26618" lon="121.44994">
        <ele>22.73358</ele>
        <time>2015-08-06T14:00:02.058000Z</time>
      </trkpt>
      <trkpt lat="31.26627" lon="121.44991">
        <ele>22.77344</ele>
        <time>2015-08-06T14:00:06.048000Z</time>
      </trkpt>
      <trkpt lat="31.26637" lon="121.44985">
        <ele>22.71693</ele>
        <time>2015-08-06T14:00:11.061000Z</time>
      </trkpt>
      <trkpt lat="31.26647" lon="121.44978">
        <ele>22.38698</ele>
        <time>2015-08-06T14:00:16.051000Z</time>
      </trkpt>
      <trkpt lat="31.26656" lon="121.44972">
        <ele>22.18468</ele>
        <time>2015-08-06T14:00:21.040000Z</time>
      </trkpt>
      <trkpt lat="31.26665" lon="121.44965">
        <ele>22.30071</ele>
        <time>2015-08-06T14:00:26.051000Z</time>
      </trkpt>
      <trkpt lat="31.26675" lon="121.44962">
        <ele>21.92336</ele>
        <time>2015-08-06T14:00:31.045000Z</time>
      </trkpt>
      <trkpt lat="31.26683" lon="121.44956">
        <ele>22.09791</ele>
        <time>2015-08-06T14:00:35.050000Z</time>
      </trkpt>
      <trkpt lat="31.26693" lon="121.44949">
        <ele>22.27196</ele>
        <time>2015-08-06T14:00:39.051000Z</time>
      </trkpt>
      <trkpt lat="31.26702" lon="121.44944">
        <ele>22.2316</ele>
        <time>2015-08-06T14:00:45.059000Z</time>
      </trkpt>
      <trkpt lat="31.2671" lon="121.44936">
        <ele>22.23765</ele>
        <time>2015-08-06T14:00:49.044000Z</time>
      </trkpt>
      <trkpt lat="31.26717" lon="121.4493">
        <ele>22.27145</ele>
        <time>2015-08-06T14:00:53.044000Z</time>
      </trkpt>
      <trkpt lat="31.26724" lon="121.44922">
        <ele>22.05755</ele>
        <time>2015-08-06T14:00:57.036000Z</time>
      </trkpt>
      <trkpt lat="31.26732" lon="121.44916">
        <ele>22.26035</ele>
        <time>2015-08-06T14:01:01.050000Z</time>
      </trkpt>
      <trkpt lat="31.2674" lon="121.4491">
        <ele>22.45459</ele>
        <time>2015-08-06T14:01:05.058000Z</time>
      </trkpt>
      <trkpt lat="31.26747" lon="121.44904">
        <ele>22.42028</ele>
        <time>2015-08-06T14:01:09.058000Z</time>
      </trkpt>
      <trkpt lat="31.26753" lon="121.44913">
        <ele>22.64226</ele>
        <time>2015-08-06T14:01:16.054000Z</time>
      </trkpt>
      <trkpt lat="31.26747" lon="121.44921">
        <ele>22.95153</ele>
        <time>2015-08-06T14:01:20.054000Z</time>
      </trkpt>
      <trkpt lat="31.26738" lon="121.44925">
        <ele>23.35466</ele>
        <time>2015-08-06T14:01:24.055000Z</time>
      </trkpt>
      <trkpt lat="31.26729" lon="121.44929">
        <ele>23.22045</ele>
        <time>2015-08-06T14:01:28.042000Z</time>
      </trkpt>
      <trkpt lat="31.2672" lon="121.44936">
        <ele>23.38947</ele>
        <time>2015-08-06T14:01:33.054000Z</time>
      </trkpt>
      <trkpt lat="31.26712" lon="121.44942">
        <ele>23.79716</ele>
        <time>2015-08-06T14:01:37.052000Z</time>
      </trkpt>
      <trkpt lat="31.26702" lon="121.44947">
        <ele>23.97628</ele>
        <time>2015-08-06T14:01:41.069000Z</time>
      </trkpt>
      <trkpt lat="31.26693" lon="121.44955">
        <ele>23.51057</ele>
        <time>2015-08-06T14:01:45.052000Z</time>
      </trkpt>
      <trkpt lat="31.26686" lon="121.44961">
        <ele>23.27595</ele>
        <time>2015-08-06T14:01:49.055000Z</time>
      </trkpt>
      <trkpt lat="31.26678" lon="121.44969">
        <ele>23.88041</ele>
        <time>2015-08-06T14:01:53.060000Z</time>
      </trkpt>
      <trkpt lat="31.26671" lon="121.44976">
        <ele>24.16853</ele>
        <time>2015-08-06T14:01:57.060000Z</time>
      </trkpt>
      <trkpt lat="31.26662" lon="121.44982">
        <ele>23.42227</ele>
        <time>2015-08-06T14:02:01.053000Z</time>
      </trkpt>
      <trkpt lat="31.26653" lon="121.44988">
        <ele>23.53478</ele>
        <time>2015-08-06T14:02:05.078000Z</time>
      </trkpt>
      <trkpt lat="31.26643" lon="121.44994">
        <ele>23.87587</ele>
        <time>2015-08-06T14:02:09.065000Z</time>
      </trkpt>
      <trkpt lat="31.26634" lon="121.44999">
        <ele>25.46237</ele>
        <time>2015-08-06T14:02:13.059000Z</time>
      </trkpt>
      <trkpt lat="31.26625" lon="121.45005">
        <ele>23.72601</ele>
        <time>2015-08-06T14:02:17.056000Z</time>
      </trkpt>
      <trkpt lat="31.26615" lon="121.45009">
        <ele>22.77697</ele>
        <time>2015-08-06T14:02:22.054000Z</time>
      </trkpt>
      <trkpt lat="31.26606" lon="121.45014">
        <ele>23.73964</ele>
        <time>2015-08-06T14:02:27.043000Z</time>
      </trkpt>
      <trkpt lat="31.266" lon="121.45022">
        <ele>22.4894</ele>
        <time>2015-08-06T14:02:32.042000Z</time>
      </trkpt>
      <trkpt lat="31.2659" lon="121.4503">
        <ele>23.88747</ele>
        <time>2015-08-06T14:02:37.046000Z</time>
      </trkpt>
      <trkpt lat="31.26581" lon="121.45035">
        <ele>23.78051</ele>
        <time>2015-08-06T14:02:41.039000Z</time>
      </trkpt>
      <trkpt lat="31.26572" lon="121.4504">
        <ele>23.65689</ele>
        <time>2015-08-06T14:02:46.047000Z</time>
      </trkpt>
      <trkpt lat="31.26564" lon="121.45048">
        <ele>23.77496</ele>
        <time>2015-08-06T14:02:50.060000Z</time>
      </trkpt>
      <trkpt lat="31.26555" lon="121.45055">
        <ele>23.97275</ele>
        <time>2015-08-06T14:02:55.052000Z</time>
      </trkpt>
      <trkpt lat="31.26546" lon="121.45063">
        <ele>24.28711</ele>
        <time>2015-08-06T14:03:00.054000Z</time>
      </trkpt>
      <trkpt lat="31.26538" lon="121.45067">
        <ele>24.63478</ele>
        <time>2015-08-06T14:03:04.056000Z</time>
      </trkpt>
      <trkpt lat="31.26528" lon="121.45072">
        <ele>24.76446</ele>
        <time>2015-08-06T14:03:09.054000Z</time>
      </trkpt>
      <trkpt lat="31.26522" lon="121.45062">
        <ele>23.98284</ele>
        <time>2015-08-06T14:03:13.056000Z</time>
      </trkpt>
      <trkpt lat="31.26528" lon="121.45052">
        <ele>24.27853</ele>
        <time>2015-08-06T14:03:18.052000Z</time>
      </trkpt>
      <trkpt lat="31.26536" lon="121.45046">
        <ele>23.95206</ele>
        <time>2015-08-06T14:03:22.054000Z</time>
      </trkpt>
      <trkpt lat="31.26545" lon="121.45041">
        <ele>24.17912</ele>
        <time>2015-08-06T14:03:26.045000Z</time>
      </trkpt>
      <trkpt lat="31.26555" lon="121.45037">
        <ele>24.17206</ele>
        <time>2015-08-06T14:03:31.052000Z</time>
      </trkpt>
      <trkpt lat="31.26563" lon="121.45032">
        <ele>23.9233</ele>
        <time>2015-08-06T14:03:34.048000Z</time>
      </trkpt>
      <trkpt lat="31.26572" lon="121.45026">
        <ele>24.11252</ele>
        <time>2015-08-06T14:03:38.059000Z</time>
      </trkpt>
      <trkpt lat="31.2658" lon="121.45019">
        <ele>23.90362</ele>
        <time>2015-08-06T14:03:42.055000Z</time>
      </trkpt>
      <trkpt lat="31.26589" lon="121.45014">
        <ele>24.53486</ele>
        <time>2015-08-06T14:03:47.055000Z</time>
      </trkpt>
      <trkpt lat="31.26597" lon="121.45008">
        <ele>24.71552</ele>
        <time>2015-08-06T14:03:51.050000Z</time>
      </trkpt>
      <trkpt lat="31.26604" lon="121.45003">
        <ele>24.83107</ele>
        <time>2015-08-06T14:03:55.056000Z</time>
      </trkpt>
      <trkpt lat="31.26613" lon="121.44997">
        <ele>24.42637</ele>
        <time>2015-08-06T14:03:59.059000Z</time>
      </trkpt>
      <trkpt lat="31.26623" lon="121.44992">
        <ele>23.47928</ele>
        <time>2015-08-06T14:04:04.055000Z</time>
      </trkpt>
      <trkpt lat="31.26632" lon="121.44985">
        <ele>23.37686</ele>
        <time>2015-08-06T14:04:09.069000Z</time>
      </trkpt>
      <trkpt lat="31.2664" lon="121.4498">
        <ele>23.15688</ele>
        <time>2015-08-06T14:04:13.055000Z</time>
      </trkpt>
      <trkpt lat="31.2665" lon="121.44974">
        <ele>23.49896</ele>
        <time>2015-08-06T14:04:18.061000Z</time>
      </trkpt>
      <trkpt lat="31.26659" lon="121.44969">
        <ele>23.51057</ele>
        <time>2015-08-06T14:04:23.050000Z</time>
      </trkpt>
      <trkpt lat="31.26669" lon="121.44963">
        <ele>23.2588</ele>
        <time>2015-08-06T14:04:28.096000Z</time>
      </trkpt>
      <trkpt lat="31.26679" lon="121.44957">
        <ele>23.09129</ele>
        <time>2015-08-06T14:04:33.037000Z</time>
      </trkpt>
      <trkpt lat="31.26688" lon="121.44952">
        <ele>23.23357</ele>
        <time>2015-08-06T14:04:38.053000Z</time>
      </trkpt>
      <trkpt lat="31.26697" lon="121.44946">
        <ele>23.07363</ele>
        <time>2015-08-06T14:04:43.058000Z</time>
      </trkpt>
      <trkpt lat="31.26706" lon="121.44939">
        <ele>23.3476</ele>
        <time>2015-08-06T14:04:48.060000Z</time>
      </trkpt>
      <trkpt lat="31.26714" lon="121.44933">
        <ele>23.60694</ele>
        <time>2015-08-06T14:04:52.064000Z</time>
      </trkpt>
      <trkpt lat="31.26724" lon="121.44925">
        <ele>23.7795</ele>
        <time>2015-08-06T14:04:56.052000Z</time>
      </trkpt>
      <trkpt lat="31.26722" lon="121.44936">
        <ele>23.74115</ele>
        <time>2015-08-06T14:05:07.069000Z</time>
      </trkpt>
      <trkpt lat="31.26713" lon="121.44944">
        <ele>24.35069</ele>
        <time>2015-08-06T14:05:11.059000Z</time>
      </trkpt>
      <trkpt lat="31.26705" lon="121.4495">
        <ele>24.35926</ele>
        <time>2015-08-06T14:05:15.055000Z</time>
      </trkpt>
      <trkpt lat="31.26696" lon="121.44955">
        <ele>24.43293</ele>
        <time>2015-08-06T14:05:19.056000Z</time>
      </trkpt>
      <trkpt lat="31.26689" lon="121.44961">
        <ele>24.61055</ele>
        <time>2015-08-06T14:05:23.054000Z</time>
      </trkpt>
      <trkpt lat="31.26682" lon="121.44969">
        <ele>25.96148</ele>
        <time>2015-08-06T14:05:27.045000Z</time>
      </trkpt>
      <trkpt lat="31.26677" lon="121.44978">
        <ele>26.40257</ele>
        <time>2015-08-06T14:05:31.052000Z</time>
      </trkpt>
      <trkpt lat="31.26667" lon="121.44983">
        <ele>25.05512</ele>
        <time>2015-08-06T14:05:36.047000Z</time>
      </trkpt>
      <trkpt lat="31.26657" lon="121.44987">
        <ele>24.82098</ele>
        <time>2015-08-06T14:05:40.058000Z</time>
      </trkpt>
      <trkpt lat="31.26648" lon="121.44991">
        <ele>24.58784</ele>
        <time>2015-08-06T14:05:44.060000Z</time>
      </trkpt>
      <trkpt lat="31.26641" lon="121.44997">
        <ele>24.50661</ele>
        <time>2015-08-06T14:05:48.074000Z</time>
      </trkpt>
      <trkpt lat="31.26632" lon="121.45004">
        <ele>25.29028</ele>
        <time>2015-08-06T14:05:53.058000Z</time>
      </trkpt>
      <trkpt lat="31.26623" lon="121.45009">
        <ele>25.15958</ele>
        <time>2015-08-06T14:05:57.060000Z</time>
      </trkpt>
      <trkpt lat="31.26613" lon="121.45015">
        <ele>24.12513</ele>
        <time>2015-08-06T14:06:02.061000Z</time>
      </trkpt>
      <trkpt lat="31.26603" lon="121.4502">
        <ele>23.76991</ele>
        <time>2015-08-06T14:06:07.042000Z</time>
      </trkpt>
      <trkpt lat="31.26594" lon="121.45024">
        <ele>24.58381</ele>
        <time>2015-08-06T14:06:12.049000Z</time>
      </trkpt>
      <trkpt lat="31.26587" lon="121.45033">
        <ele>24.71703</ele>
        <time>2015-08-06T14:06:17.036000Z</time>
      </trkpt>
      <trkpt lat="31.26582" lon="121.45045">
        <ele>24.52376</ele>
        <time>2015-08-06T14:06:21.044000Z</time>
      </trkpt>
      <trkpt lat="31.26573" lon="121.45048">
        <ele>24.29266</ele>
        <time>2015-08-06T14:06:24.057000Z</time>
      </trkpt>
      <trkpt lat="31.26562" lon="121.45053">
        <ele>24.44</ele>
        <time>2015-08-06T14:06:29.051000Z</time>
      </trkpt>
      <trkpt lat="31.26551" lon="121.45057">
        <ele>24.83965</ele>
        <time>2015-08-06T14:06:33.066000Z</time>
      </trkpt>
      <trkpt lat="31.26543" lon="121.45062">
        <ele>25.52444</ele>
        <time>2015-08-06T14:06:38.057000Z</time>
      </trkpt>
      <trkpt lat="31.26533" lon="121.45066">
        <ele>25.0304</ele>
        <time>2015-08-06T14:06:42.059000Z</time>
      </trkpt>
      <trkpt lat="31.26524" lon="121.4507">
        <ele>25.59509</ele>
        <time>2015-08-06T14:06:47.054000Z</time>
      </trkpt>
      <trkpt lat="31.26519" lon="121.45059">
        <ele>25.1172</ele>
        <time>2015-08-06T14:06:52.070000Z</time>
      </trkpt>
      <trkpt lat="31.26524" lon="121.45049">
        <ele>25.18784</ele>
        <time>2015-08-06T14:06:56.052000Z</time>
      </trkpt>
      <trkpt lat="31.26534" lon="121.45044">
        <ele>24.91736</ele>
        <time>2015-08-06T14:07:00.076000Z</time>
      </trkpt>
      <trkpt lat="31.26543" lon="121.45038">
        <ele>24.73772</ele>
        <time>2015-08-06T14:07:05.052000Z</time>
      </trkpt>
      <trkpt lat="31.26551" lon="121.45033">
        <ele>25.09751</ele>
        <time>2015-08-06T14:07:09.056000Z</time>
      </trkpt>
      <trkpt lat="31.2656" lon="121.4503">
        <ele>24.80887</ele>
        <time>2015-08-06T14:07:13.054000Z</time>
      </trkpt>
      <trkpt lat="31.2657" lon="121.45023">
        <ele>24.49853</ele>
        <time>2015-08-06T14:07:18.049000Z</time>
      </trkpt>
      <trkpt lat="31.26578" lon="121.45018">
        <ele>24.90172</ele>
        <time>2015-08-06T14:07:22.048000Z</time>
      </trkpt>
      <trkpt lat="31.26587" lon="121.45013">
        <ele>24.89314</ele>
        <time>2015-08-06T14:07:28.050000Z</time>
      </trkpt>
      <trkpt lat="31.26595" lon="121.45006">
        <ele>24.93906</ele>
        <time>2015-08-06T14:07:32.035000Z</time>
      </trkpt>
      <trkpt lat="31.26604" lon="121.45">
        <ele>25.3791</ele>
        <time>2015-08-06T14:07:36.043000Z</time>
      </trkpt>
      <trkpt lat="31.26613" lon="121.44996">
        <ele>25.08237</ele>
        <time>2015-08-06T14:07:40.056000Z</time>
      </trkpt>
      <trkpt lat="31.26622" lon="121.44989">
        <ele>24.59087</ele>
        <time>2015-08-06T14:07:45.074000Z</time>
      </trkpt>
      <trkpt lat="31.26631" lon="121.44985">
        <ele>24.06509</ele>
        <time>2015-08-06T14:07:50.059000Z</time>
      </trkpt>
      <trkpt lat="31.26641" lon="121.44981">
        <ele>24.72662</ele>
        <time>2015-08-06T14:07:55.060000Z</time>
      </trkpt>
      <trkpt lat="31.2665" lon="121.44975">
        <ele>26.12903</ele>
        <time>2015-08-06T14:08:00.063000Z</time>
      </trkpt>
      <trkpt lat="31.2666" lon="121.4497">
        <ele>24.76547</ele>
        <time>2015-08-06T14:08:05.075000Z</time>
      </trkpt>
      <trkpt lat="31.26669" lon="121.44964">
        <ele>24.45867</ele>
        <time>2015-08-06T14:08:10.065000Z</time>
      </trkpt>
      <trkpt lat="31.26677" lon="121.44958">
        <ele>24.15389</ele>
        <time>2015-08-06T14:08:14.051000Z</time>
      </trkpt>
      <trkpt lat="31.26686" lon="121.44952">
        <ele>23.68766</ele>
        <time>2015-08-06T14:08:18.060000Z</time>
      </trkpt>
      <trkpt lat="31.26696" lon="121.44945">
        <ele>23.88949</ele>
        <time>2015-08-06T14:08:23.053000Z</time>
      </trkpt>
      <trkpt lat="31.26705" lon="121.4494">
        <ele>24.31385</ele>
        <time>2015-08-06T14:08:27.037000Z</time>
      </trkpt>
      <trkpt lat="31.26713" lon="121.44935">
        <ele>24.52982</ele>
        <time>2015-08-06T14:08:31.042000Z</time>
      </trkpt>
      <trkpt lat="31.26721" lon="121.44928">
        <ele>24.08577</ele>
        <time>2015-08-06T14:08:35.046000Z</time>
      </trkpt>
      <trkpt lat="31.2673" lon="121.44922">
        <ele>24.44353</ele>
        <time>2015-08-06T14:08:40.057000Z</time>
      </trkpt>
      <trkpt lat="31.26738" lon="121.44914">
        <ele>24.32848</ele>
        <time>2015-08-06T14:08:45.055000Z</time>
      </trkpt>
      <trkpt lat="31.26747" lon="121.44913">
        <ele>24.57019</ele>
        <time>2015-08-06T14:08:51.057000Z</time>
      </trkpt>
      <trkpt lat="31.26742" lon="121.44924">
        <ele>25.37103</ele>
        <time>2015-08-06T14:08:55.037000Z</time>
      </trkpt>
      <trkpt lat="31.26733" lon="121.4493">
        <ele>24.9865</ele>
        <time>2015-08-06T14:08:59.044000Z</time>
      </trkpt>
      <trkpt lat="31.26724" lon="121.44935">
        <ele>25.54463</ele>
        <time>2015-08-06T14:09:05.047000Z</time>
      </trkpt>
      <trkpt lat="31.26715" lon="121.44943">
        <ele>25.96148</ele>
        <time>2015-08-06T14:09:09.047000Z</time>
      </trkpt>
      <trkpt lat="31.26706" lon="121.44949">
        <ele>26.2335</ele>
        <time>2015-08-06T14:09:13.040000Z</time>
      </trkpt>
      <trkpt lat="31.26696" lon="121.44955">
        <ele>25.33722</ele>
        <time>2015-08-06T14:09:17.054000Z</time>
      </trkpt>
      <trkpt lat="31.26687" lon="121.44959">
        <ele>25.19945</ele>
        <time>2015-08-06T14:09:21.058000Z</time>
      </trkpt>
      <trkpt lat="31.26679" lon="121.44967">
        <ele>25.20853</ele>
        <time>2015-08-06T14:09:26.051000Z</time>
      </trkpt>
      <trkpt lat="31.2667" lon="121.44974">
        <ele>24.90374</ele>
        <time>2015-08-06T14:09:32.053000Z</time>
      </trkpt>
      <trkpt lat="31.26661" lon="121.44979">
        <ele>25.28574</ele>
        <time>2015-08-06T14:09:35.048000Z</time>
      </trkpt>
      <trkpt lat="31.26653" lon="121.44984">
        <ele>25.63395</ele>
        <time>2015-08-06T14:09:39.058000Z</time>
      </trkpt>
      <trkpt lat="31.26645" lon="121.44991">
        <ele>25.5739</ele>
        <time>2015-08-06T14:09:44.059000Z</time>
      </trkpt>
      <trkpt lat="31.26636" lon="121.44997">
        <ele>25.58651</ele>
        <time>2015-08-06T14:09:49.057000Z</time>
      </trkpt>
    </trkseg>
  </trk>
</gpx>