<?xml version="1.0" encoding="UTF-8"?>
<gpx xmlns="http://www.topografix.com/GPX/1/1" xmlns:gpxtpx="http://www.garmin.com/xmlschemas/TrackPointExtension/v1" xmlns:xsi="http://www.w3.org/2001/XMLSchema-instance" xsi:schemaLocation="http://www.topografix.com/GPX/1/1 http://www.topografix.com/GPX/1/1/gpx.xsd" version="1.1" creator="gpx.py -- https://github.com/tkrajina/gpxpy">
  <trk>
    <name>gpx from codoon</name>
    <type>Run</type>
    <trkseg>
      <trkpt lat="31.26515" lon="121.45061">
        <ele>3.69922</ele>
        <time>2015-08-11T13:54:38.431000Z</time>
      </trkpt>
      <trkpt lat="31.26526" lon="121.45059">
        <ele>1.45576</ele>
        <time>2015-08-11T13:54:46.050000Z</time>
      </trkpt>
      <trkpt lat="31.26535" lon="121.45053">
        <ele>1.28927</ele>
        <time>2015-08-11T13:54:50.040000Z</time>
      </trkpt>
      <trkpt lat="31.26545" lon="121.45046">
        <ele>1.33684</ele>
        <time>2015-08-11T13:54:54.033000Z</time>
      </trkpt>
      <trkpt lat="31.26553" lon="121.45038">
        <ele>1.1663</ele>
        <time>2015-08-11T13:54:59.047000Z</time>
      </trkpt>
      <trkpt lat="31.26562" lon="121.45031">
        <ele>0.78271</ele>
        <time>2015-08-11T13:55:04.051000Z</time>
      </trkpt>
      <trkpt lat="31.2657" lon="121.45025">
        <ele>0.8991</ele>
        <time>2015-08-11T13:55:08.046000Z</time>
      </trkpt>
      <trkpt lat="31.26579" lon="121.45018">
        <ele>0.90163</ele>
        <time>2015-08-11T13:55:12.051000Z</time>
      </trkpt>
      <trkpt lat="31.26589" lon="121.45014">
        <ele>1.24879</ele>
        <time>2015-08-11T13:55:17.049000Z</time>
      </trkpt>
      <trkpt lat="31.26597" lon="121.4501">
        <ele>1.38491</ele>
        <time>2015-08-11T13:55:21.057000Z</time>
      </trkpt>
      <trkpt lat="31.26605" lon="121.45005">
        <ele>0.86723</ele>
        <time>2015-08-11T13:55:25.063000Z</time>
      </trkpt>
      <trkpt lat="31.26614" lon="121.45">
        <ele>0.7726</ele>
        <time>2015-08-11T13:55:29.053000Z</time>
      </trkpt>
      <trkpt lat="31.26624" lon="121.44995">
        <ele>0.80549</ele>
        <time>2015-08-11T13:55:33.045000Z</time>
      </trkpt>
      <trkpt lat="31.26635" lon="121.44991">
        <ele>0.85508</ele>
        <time>2015-08-11T13:55:37.059000Z</time>
      </trkpt>
      <trkpt lat="31.26645" lon="121.44985">
        <ele>0.80802</ele>
        <time>2015-08-11T13:55:43.047000Z</time>
      </trkpt>
      <trkpt lat="31.26652" lon="121.44977">
        <ele>1.09292</ele>
        <time>2015-08-11T13:55:47.040000Z</time>
      </trkpt>
      <trkpt lat="31.26659" lon="121.44969">
        <ele>0.93706</ele>
        <time>2015-08-11T13:55:51.054000Z</time>
      </trkpt>
      <trkpt lat="31.26666" lon="121.4496">
        <ele>1.00436</ele>
        <time>2015-08-11T13:55:55.041000Z</time>
      </trkpt>
      <trkpt lat="31.26675" lon="121.44954">
        <ele>0.90417</ele>
        <time>2015-08-11T13:55:59.038000Z</time>
      </trkpt>
      <trkpt lat="31.26683" lon="121.44948">
        <ele>1.04586</ele>
        <time>2015-08-11T13:56:03.038000Z</time>
      </trkpt>
      <trkpt lat="31.26692" lon="121.4494">
        <ele>1.34443</ele>
        <time>2015-08-11T13:56:08.037000Z</time>
      </trkpt>
      <trkpt lat="31.26701" lon="121.44934">
        <ele>1.30192</ele>
        <time>2015-08-11T13:56:12.031000Z</time>
      </trkpt>
      <trkpt lat="31.26709" lon="121.44927">
        <ele>1.31356</ele>
        <time>2015-08-11T13:56:15.041000Z</time>
      </trkpt>
      <trkpt lat="31.26718" lon="121.4492">
        <ele>1.30901</ele>
        <time>2015-08-11T13:56:19.044000Z</time>
      </trkpt>
      <trkpt lat="31.2673" lon="121.44919">
        <ele>0.54742</ele>
        <time>2015-08-11T13:56:23.038000Z</time>
      </trkpt>
      <trkpt lat="31.26739" lon="121.44913">
        <ele>0.29188</ele>
        <time>2015-08-11T13:56:27.059000Z</time>
      </trkpt>
      <trkpt lat="31.26746" lon="121.44907">
        <ele>0.3197</ele>
        <time>2015-08-11T13:56:30.059000Z</time>
      </trkpt>
      <trkpt lat="31.26757" lon="121.44902">
        <ele>0.41331</ele>
        <time>2015-08-11T13:56:34.033000Z</time>
      </trkpt>
      <trkpt lat="31.26764" lon="121.44893">
        <ele>0.53729</ele>
        <time>2015-08-11T13:56:39.048000Z</time>
      </trkpt>
      <trkpt lat="31.26771" lon="121.44884">
        <ele>0.64255</ele>
        <time>2015-08-11T13:56:43.042000Z</time>
      </trkpt>
      <trkpt lat="31.26779" lon="121.44879">
        <ele>0.52211</ele>
        <time>2015-08-11T13:56:47.061000Z</time>
      </trkpt>
      <trkpt lat="31.26788" lon="121.44877">
        <ele>0.64457</ele>
        <time>2015-08-11T13:56:51.041000Z</time>
      </trkpt>
      <trkpt lat="31.26793" lon="121.44886">
        <ele>0.59396</ele>
        <time>2015-08-11T13:56:55.060000Z</time>
      </trkpt>
      <trkpt lat="31.26787" lon="121.44896">
        <ele>0.63242</ele>
        <time>2015-08-11T13:56:59.033000Z</time>
      </trkpt>
      <trkpt lat="31.26778" lon="121.44905">
        <ele>1.12682</ele>
        <time>2015-08-11T13:57:03.050000Z</time>
      </trkpt>
      <trkpt lat="31.26772" lon="121.44917">
        <ele>1.47398</ele>
        <time>2015-08-11T13:57:07.054000Z</time>
      </trkpt>
      <trkpt lat="31.26764" lon="121.44924">
        <ele>1.71234</ele>
        <time>2015-08-11T13:57:11.056000Z</time>
      </trkpt>
      <trkpt lat="31.26753" lon="121.44925">
        <ele>1.74271</ele>
        <time>2015-08-11T13:57:17.044000Z</time>
      </trkpt>
      <trkpt lat="31.26742" lon="121.44928">
        <ele>1.83582</ele>
        <time>2015-08-11T13:57:21.041000Z</time>
      </trkpt>
      <trkpt lat="31.26732" lon="121.44934">
        <ele>1.63896</ele>
        <time>2015-08-11T13:57:25.042000Z</time>
      </trkpt>
      <trkpt lat="31.26723" lon="121.44941">
        <ele>1.26953</ele>
        <time>2015-08-11T13:57:29.055000Z</time>
      </trkpt>
      <trkpt lat="31.26717" lon="121.44949">
        <ele>0.69872</ele>
        <time>2015-08-11T13:57:32.046000Z</time>
      </trkpt>
      <trkpt lat="31.26712" lon="121.4496">
        <ele>0.63799</ele>
        <time>2015-08-11T13:57:35.064000Z</time>
      </trkpt>
      <trkpt lat="31.26702" lon="121.44964">
        <ele>1.06863</ele>
        <time>2015-08-11T13:57:39.046000Z</time>
      </trkpt>
      <trkpt lat="31.26693" lon="121.44969">
        <ele>1.04383</ele>
        <time>2015-08-11T13:57:43.059000Z</time>
      </trkpt>
      <trkpt lat="31.26683" lon="121.44972">
        <ele>1.22095</ele>
        <time>2015-08-11T13:57:47.062000Z</time>
      </trkpt>
      <trkpt lat="31.26672" lon="121.44977">
        <ele>1.04839</ele>
        <time>2015-08-11T13:57:51.034000Z</time>
      </trkpt>
      <trkpt lat="31.26662" lon="121.44981">
        <ele>0.71997</ele>
        <time>2015-08-11T13:57:56.050000Z</time>
      </trkpt>
      <trkpt lat="31.26653" lon="121.44987">
        <ele>0.80499</ele>
        <time>2015-08-11T13:58:01.060000Z</time>
      </trkpt>
      <trkpt lat="31.26643" lon="121.44991">
        <ele>0.80245</ele>
        <time>2015-08-11T13:58:05.036000Z</time>
      </trkpt>
      <trkpt lat="31.26635" lon="121.44997">
        <ele>0.84749</ele>
        <time>2015-08-11T13:58:09.036000Z</time>
      </trkpt>
      <trkpt lat="31.26628" lon="121.45006">
        <ele>1.07673</ele>
        <time>2015-08-11T13:58:13.047000Z</time>
      </trkpt>
      <trkpt lat="31.26618" lon="121.45012">
        <ele>0.87836</ele>
        <time>2015-08-11T13:58:17.038000Z</time>
      </trkpt>
      <trkpt lat="31.26609" lon="121.45016">
        <ele>1.30647</ele>
        <time>2015-08-11T13:58:21.034000Z</time>
      </trkpt>
      <trkpt lat="31.26601" lon="121.45022">
        <ele>1.85607</ele>
        <time>2015-08-11T13:58:25.072000Z</time>
      </trkpt>
      <trkpt lat="31.26593" lon="121.45028">
        <ele>1.85404</ele>
        <time>2015-08-11T13:58:30.046000Z</time>
      </trkpt>
      <trkpt lat="31.26583" lon="121.45033">
        <ele>1.4426</ele>
        <time>2015-08-11T13:58:34.056000Z</time>
      </trkpt>
      <trkpt lat="31.26575" lon="121.45039">
        <ele>1.5752</ele>
        <time>2015-08-11T13:58:38.055000Z</time>
      </trkpt>
      <trkpt lat="31.26566" lon="121.45046">
        <ele>1.64908</ele>
        <time>2015-08-11T13:58:42.058000Z</time>
      </trkpt>
      <trkpt lat="31.26559" lon="121.45053">
        <ele>1.83836</ele>
        <time>2015-08-11T13:58:46.061000Z</time>
      </trkpt>
      <trkpt lat="31.2655" lon="121.45059">
        <ele>1.25385</ele>
        <time>2015-08-11T13:58:50.056000Z</time>
      </trkpt>
      <trkpt lat="31.26541" lon="121.45065">
        <ele>1.24676</ele>
        <time>2015-08-11T13:58:54.052000Z</time>
      </trkpt>
      <trkpt lat="31.26532" lon="121.45069">
        <ele>0.89961</ele>
        <time>2015-08-11T13:58:59.059000Z</time>
      </trkpt>
      <trkpt lat="31.26523" lon="121.45064">
        <ele>1.89149</ele>
        <time>2015-08-11T13:59:05.054000Z</time>
      </trkpt>
      <trkpt lat="31.26526" lon="121.45052">
        <ele>1.75991</ele>
        <time>2015-08-11T13:59:09.057000Z</time>
      </trkpt>
      <trkpt lat="31.26536" lon="121.45045">
        <ele>1.92743</ele>
        <time>2015-08-11T13:59:13.065000Z</time>
      </trkpt>
      <trkpt lat="31.26546" lon="121.45042">
        <ele>1.79838</ele>
        <time>2015-08-11T13:59:17.047000Z</time>
      </trkpt>
      <trkpt lat="31.26554" lon="121.45038">
        <ele>1.80749</ele>
        <time>2015-08-11T13:59:21.042000Z</time>
      </trkpt>
      <trkpt lat="31.26564" lon="121.45032">
        <ele>1.92338</ele>
        <time>2015-08-11T13:59:25.058000Z</time>
      </trkpt>
      <trkpt lat="31.26573" lon="121.45027">
        <ele>2.13948</ele>
        <time>2015-08-11T13:59:29.041000Z</time>
      </trkpt>
      <trkpt lat="31.26581" lon="121.45021">
        <ele>2.11367</ele>
        <time>2015-08-11T13:59:32.036000Z</time>
      </trkpt>
      <trkpt lat="31.26591" lon="121.45014">
        <ele>2.12835</ele>
        <time>2015-08-11T13:59:36.043000Z</time>
      </trkpt>
      <trkpt lat="31.26599" lon="121.45008">
        <ele>2.1739</ele>
        <time>2015-08-11T13:59:40.040000Z</time>
      </trkpt>
      <trkpt lat="31.26607" lon="121.45002">
        <ele>1.87074</ele>
        <time>2015-08-11T13:59:44.042000Z</time>
      </trkpt>
      <trkpt lat="31.26615" lon="121.44996">
        <ele>1.63339</ele>
        <time>2015-08-11T13:59:48.059000Z</time>
      </trkpt>
      <trkpt lat="31.26623" lon="121.44989">
        <ele>1.63491</ele>
        <time>2015-08-11T13:59:52.046000Z</time>
      </trkpt>
      <trkpt lat="31.26631" lon="121.44984">
        <ele>1.38491</ele>
        <time>2015-08-11T13:59:56.056000Z</time>
      </trkpt>
      <trkpt lat="31.26641" lon="121.44979">
        <ele>1.54989</ele>
        <time>2015-08-11T14:00:01.052000Z</time>
      </trkpt>
      <trkpt lat="31.26651" lon="121.44974">
        <ele>1.33582</ele>
        <time>2015-08-11T14:00:05.053000Z</time>
      </trkpt>
      <trkpt lat="31.26659" lon="121.44969">
        <ele>1.05496</ele>
        <time>2015-08-11T14:00:09.050000Z</time>
      </trkpt>
      <trkpt lat="31.26668" lon="121.44962">
        <ele>1.08432</ele>
        <time>2015-08-11T14:00:14.058000Z</time>
      </trkpt>
      <trkpt lat="31.26678" lon="121.44955">
        <ele>1.23411</ele>
        <time>2015-08-11T14:00:18.057000Z</time>
      </trkpt>
      <trkpt lat="31.26686" lon="121.4495">
        <ele>1.18502</ele>
        <time>2015-08-11T14:00:21.053000Z</time>
      </trkpt>
      <trkpt lat="31.26696" lon="121.44944">
        <ele>1.42995</ele>
        <time>2015-08-11T14:00:25.050000Z</time>
      </trkpt>
      <trkpt lat="31.26705" lon="121.44938">
        <ele>1.72247</ele>
        <time>2015-08-11T14:00:30.055000Z</time>
      </trkpt>
      <trkpt lat="31.26713" lon="121.44933">
        <ele>1.16376</ele>
        <time>2015-08-11T14:00:34.049000Z</time>
      </trkpt>
      <trkpt lat="31.26722" lon="121.44927">
        <ele>0.97198</ele>
        <time>2015-08-11T14:00:38.046000Z</time>
      </trkpt>
      <trkpt lat="31.26731" lon="121.4492">
        <ele>0.76349</ele>
        <time>2015-08-11T14:00:42.056000Z</time>
      </trkpt>
      <trkpt lat="31.26739" lon="121.44913">
        <ele>0.54286</ele>
        <time>2015-08-11T14:00:46.054000Z</time>
      </trkpt>
      <trkpt lat="31.26749" lon="121.44909">
        <ele>0.31262</ele>
        <time>2015-08-11T14:00:50.058000Z</time>
      </trkpt>
      <trkpt lat="31.26757" lon="121.44902">
        <ele>0.28529</ele>
        <time>2015-08-11T14:00:54.058000Z</time>
      </trkpt>
      <trkpt lat="31.26766" lon="121.44897">
        <ele>0.33488</ele>
        <time>2015-08-11T14:00:58.040000Z</time>
      </trkpt>
      <trkpt lat="31.26773" lon="121.44889">
        <ele>0.42648</ele>
        <time>2015-08-11T14:01:02.054000Z</time>
      </trkpt>
      <trkpt lat="31.26781" lon="121.44883">
        <ele>0.38853</ele>
        <time>2015-08-11T14:01:06.045000Z</time>
      </trkpt>
      <trkpt lat="31.26791" lon="121.4488">
        <ele>0.3197</ele>
        <time>2015-08-11T14:01:10.051000Z</time>
      </trkpt>
      <trkpt lat="31.26796" lon="121.44889">
        <ele>0.39359</ele>
        <time>2015-08-11T14:01:18.052000Z</time>
      </trkpt>
      <trkpt lat="31.26788" lon="121.44897">
        <ele>0.56968</ele>
        <time>2015-08-11T14:01:22.048000Z</time>
      </trkpt>
      <trkpt lat="31.26782" lon="121.44906">
        <ele>0.61876</ele>
        <time>2015-08-11T14:01:26.057000Z</time>
      </trkpt>
      <trkpt lat="31.26772" lon="121.44911">
        <ele>0.50592</ele>
        <time>2015-08-11T14:01:30.053000Z</time>
      </trkpt>
      <trkpt lat="31.26762" lon="121.44917">
        <ele>0.36373</ele>
        <time>2015-08-11T14:01:34.062000Z</time>
      </trkpt>
      <trkpt lat="31.26751" lon="121.4492">
        <ele>0.2261</ele>
        <time>2015-08-11T14:01:39.048000Z</time>
      </trkpt>
      <trkpt lat="31.26742" lon="121.44926">
        <ele>0.33134</ele>
        <time>2015-08-11T14:01:44.044000Z</time>
      </trkpt>
      <trkpt lat="31.26733" lon="121.44933">
        <ele>0.67898</ele>
        <time>2015-08-11T14:01:50.045000Z</time>
      </trkpt>
      <trkpt lat="31.26723" lon="121.44942">
        <ele>0.22205</ele>
        <time>2015-08-11T14:01:54.052000Z</time>
      </trkpt>
      <trkpt lat="31.26714" lon="121.44947">
        <ele>0.19978</ele>
        <time>2015-08-11T14:01:58.051000Z</time>
      </trkpt>
      <trkpt lat="31.26707" lon="121.44953">
        <ele>0.1679</ele>
        <time>2015-08-11T14:02:02.059000Z</time>
      </trkpt>
      <trkpt lat="31.26697" lon="121.44958">
        <ele>0.50086</ele>
        <time>2015-08-11T14:02:07.041000Z</time>
      </trkpt>
      <trkpt lat="31.26688" lon="121.44965">
        <ele>0.48062</ele>
        <time>2015-08-11T14:02:12.077000Z</time>
      </trkpt>
      <trkpt lat="31.26679" lon="121.4497">
        <ele>0.85508</ele>
        <time>2015-08-11T14:02:16.032000Z</time>
      </trkpt>
      <trkpt lat="31.2667" lon="121.44978">
        <ele>0.77209</ele>
        <time>2015-08-11T14:02:21.044000Z</time>
      </trkpt>
      <trkpt lat="31.26661" lon="121.44984">
        <ele>0.69669</ele>
        <time>2015-08-11T14:02:25.048000Z</time>
      </trkpt>
      <trkpt lat="31.26651" lon="121.44988">
        <ele>0.54185</ele>
        <time>2015-08-11T14:02:29.056000Z</time>
      </trkpt>
      <trkpt lat="31.26643" lon="121.44993">
        <ele>0.60105</ele>
        <time>2015-08-11T14:02:33.064000Z</time>
      </trkpt>
      <trkpt lat="31.26635" lon="121.44998">
        <ele>0.68101</ele>
        <time>2015-08-11T14:02:37.055000Z</time>
      </trkpt>
      <trkpt lat="31.26625" lon="121.45003">
        <ele>0.75792</ele>
        <time>2015-08-11T14:02:42.055000Z</time>
      </trkpt>
      <trkpt lat="31.26617" lon="121.45008">
        <ele>0.87178</ele>
        <time>2015-08-11T14:02:46.043000Z</time>
      </trkpt>
      <trkpt lat="31.26609" lon="121.45014">
        <ele>1.60202</ele>
        <time>2015-08-11T14:02:50.061000Z</time>
      </trkpt>
      <trkpt lat="31.26601" lon="121.45019">
        <ele>1.41376</ele>
        <time>2015-08-11T14:02:54.058000Z</time>
      </trkpt>
      <trkpt lat="31.26593" lon="121.45025">
        <ele>1.59999</ele>
        <time>2015-08-11T14:02:58.052000Z</time>
      </trkpt>
      <trkpt lat="31.26585" lon="121.45031">
        <ele>1.49169</ele>
        <time>2015-08-11T14:03:02.062000Z</time>
      </trkpt>
      <trkpt lat="31.26575" lon="121.45036">
        <ele>1.33026</ele>
        <time>2015-08-11T14:03:07.055000Z</time>
      </trkpt>
      <trkpt lat="31.26566" lon="121.45043">
        <ele>1.16225</ele>
        <time>2015-08-11T14:03:12.057000Z</time>
      </trkpt>
      <trkpt lat="31.26557" lon="121.4505">
        <ele>1.32317</ele>
        <time>2015-08-11T14:03:17.033000Z</time>
      </trkpt>
      <trkpt lat="31.26549" lon="121.45056">
        <ele>1.23209</ele>
        <time>2015-08-11T14:03:21.045000Z</time>
      </trkpt>
      <trkpt lat="31.2654" lon="121.45062">
        <ele>1.43855</ele>
        <time>2015-08-11T14:03:25.063000Z</time>
      </trkpt>
      <trkpt lat="31.26532" lon="121.45068">
        <ele>1.40364</ele>
        <time>2015-08-11T14:03:29.064000Z</time>
      </trkpt>
      <trkpt lat="31.26522" lon="121.45066">
        <ele>1.89453</ele>
        <time>2015-08-11T14:03:34.057000Z</time>
      </trkpt>
      <trkpt lat="31.26523" lon="121.45055">
        <ele>1.69969</ele>
        <time>2015-08-11T14:03:38.060000Z</time>
      </trkpt>
      <trkpt lat="31.26534" lon="121.45049">
        <ele>1.54129</ele>
        <time>2015-08-11T14:03:42.054000Z</time>
      </trkpt>
      <trkpt lat="31.26543" lon="121.45044">
        <ele>1.60758</ele>
        <time>2015-08-11T14:03:46.059000Z</time>
      </trkpt>
      <trkpt lat="31.26552" lon="121.45039">
        <ele>1.66578</ele>
        <time>2015-08-11T14:03:50.049000Z</time>
      </trkpt>
      <trkpt lat="31.26561" lon="121.45035">
        <ele>1.46538</ele>
        <time>2015-08-11T14:03:54.062000Z</time>
      </trkpt>
      <trkpt lat="31.26571" lon="121.45029">
        <ele>1.37428</ele>
        <time>2015-08-11T14:03:59.059000Z</time>
      </trkpt>
      <trkpt lat="31.26578" lon="121.45023">
        <ele>1.59747</ele>
        <time>2015-08-11T14:04:03.055000Z</time>
      </trkpt>
      <trkpt lat="31.26586" lon="121.45017">
        <ele>1.49068</ele>
        <time>2015-08-11T14:04:07.062000Z</time>
      </trkpt>
      <trkpt lat="31.26594" lon="121.4501">
        <ele>1.35252</ele>
        <time>2015-08-11T14:04:11.060000Z</time>
      </trkpt>
      <trkpt lat="31.26602" lon="121.45003">
        <ele>1.17338</ele>
        <time>2015-08-11T14:04:15.045000Z</time>
      </trkpt>
      <trkpt lat="31.2661" lon="121.44995">
        <ele>1.56103</ele>
        <time>2015-08-11T14:04:21.083000Z</time>
      </trkpt>
      <trkpt lat="31.26619" lon="121.44991">
        <ele>1.67439</ele>
        <time>2015-08-11T14:04:25.044000Z</time>
      </trkpt>
      <trkpt lat="31.26627" lon="121.44986">
        <ele>1.87429</ele>
        <time>2015-08-11T14:04:29.044000Z</time>
      </trkpt>
      <trkpt lat="31.26637" lon="121.4498">
        <ele>1.79534</ele>
        <time>2015-08-11T14:04:34.046000Z</time>
      </trkpt>
      <trkpt lat="31.26646" lon="121.44974">
        <ele>1.73461</ele>
        <time>2015-08-11T14:04:39.047000Z</time>
      </trkpt>
      <trkpt lat="31.26654" lon="121.44969">
        <ele>1.40111</ele>
        <time>2015-08-11T14:04:43.041000Z</time>
      </trkpt>
      <trkpt lat="31.26664" lon="121.44962">
        <ele>1.54989</ele>
        <time>2015-08-11T14:04:48.055000Z</time>
      </trkpt>
      <trkpt lat="31.26674" lon="121.44956">
        <ele>1.45273</ele>
        <time>2015-08-11T14:04:52.061000Z</time>
      </trkpt>
      <trkpt lat="31.26684" lon="121.4495">
        <ele>1.55242</ele>
        <time>2015-08-11T14:04:56.052000Z</time>
      </trkpt>
      <trkpt lat="31.26694" lon="121.44944">
        <ele>1.17338</ele>
        <time>2015-08-11T14:05:00.057000Z</time>
      </trkpt>
      <trkpt lat="31.26702" lon="121.44938">
        <ele>1.3252</ele>
        <time>2015-08-11T14:05:04.044000Z</time>
      </trkpt>
      <trkpt lat="31.26709" lon="121.44931">
        <ele>1.35455</ele>
        <time>2015-08-11T14:05:08.053000Z</time>
      </trkpt>
      <trkpt lat="31.26719" lon="121.44926">
        <ele>1.058</ele>
        <time>2015-08-11T14:05:12.060000Z</time>
      </trkpt>
      <trkpt lat="31.26728" lon="121.44922">
        <ele>0.83382</ele>
        <time>2015-08-11T14:05:16.059000Z</time>
      </trkpt>
      <trkpt lat="31.26735" lon="121.44915">
        <ele>0.67797</ele>
        <time>2015-08-11T14:05:20.034000Z</time>
      </trkpt>
      <trkpt lat="31.26745" lon="121.44912">
        <ele>0.60459</ele>
        <time>2015-08-11T14:05:25.041000Z</time>
      </trkpt>
      <trkpt lat="31.26754" lon="121.44906">
        <ele>0.74375</ele>
        <time>2015-08-11T14:05:30.041000Z</time>
      </trkpt>
      <trkpt lat="31.26764" lon="121.44899">
        <ele>0.85406</ele>
        <time>2015-08-11T14:05:35.046000Z</time>
      </trkpt>
      <trkpt lat="31.26775" lon="121.44894">
        <ele>1.27864</ele>
        <time>2015-08-11T14:05:39.057000Z</time>
      </trkpt>
      <trkpt lat="31.26784" lon="121.44886">
        <ele>1.49372</ele>
        <time>2015-08-11T14:05:43.061000Z</time>
      </trkpt>
      <trkpt lat="31.26792" lon="121.44881">
        <ele>1.11771</ele>
        <time>2015-08-11T14:05:46.055000Z</time>
      </trkpt>
      <trkpt lat="31.26802" lon="121.4488">
        <ele>0.72351</ele>
        <time>2015-08-11T14:05:50.070000Z</time>
      </trkpt>
      <trkpt lat="31.26801" lon="121.44892">
        <ele>0.80245</ele>
        <time>2015-08-11T14:05:55.058000Z</time>
      </trkpt>
      <trkpt lat="31.26792" lon="121.44895">
        <ele>0.9993</ele>
        <time>2015-08-11T14:05:58.044000Z</time>
      </trkpt>
      <trkpt lat="31.26782" lon="121.44901">
        <ele>1.18097</ele>
        <time>2015-08-11T14:06:02.057000Z</time>
      </trkpt>
      <trkpt lat="31.26772" lon="121.44906">
        <ele>1.24879</ele>
        <time>2015-08-11T14:06:06.055000Z</time>
      </trkpt>
      <trkpt lat="31.26764" lon="121.44914">
        <ele>1.2589</ele>
        <time>2015-08-11T14:06:10.068000Z</time>
      </trkpt>
      <trkpt lat="31.26756" lon="121.4492">
        <ele>1.17085</ele>
        <time>2015-08-11T14:06:14.034000Z</time>
      </trkpt>
      <trkpt lat="31.26748" lon="121.44928">
        <ele>1.34241</ele>
        <time>2015-08-11T14:06:18.047000Z</time>
      </trkpt>
      <trkpt lat="31.2674" lon="121.44936">
        <ele>0.89708</ele>
        <time>2015-08-11T14:06:23.047000Z</time>
      </trkpt>
      <trkpt lat="31.26731" lon="121.44944">
        <ele>0.87886</ele>
        <time>2015-08-11T14:06:28.055000Z</time>
      </trkpt>
      <trkpt lat="31.26724" lon="121.44951">
        <ele>1.28218</ele>
        <time>2015-08-11T14:06:32.048000Z</time>
      </trkpt>
      <trkpt lat="31.26715" lon="121.44956">
        <ele>1.19514</ele>
        <time>2015-08-11T14:06:36.031000Z</time>
      </trkpt>
      <trkpt lat="31.26707" lon="121.44962">
        <ele>0.97298</ele>
        <time>2015-08-11T14:06:40.042000Z</time>
      </trkpt>
      <trkpt lat="31.26697" lon="121.44964">
        <ele>0.80549</ele>
        <time>2015-08-11T14:06:43.050000Z</time>
      </trkpt>
      <trkpt lat="31.26688" lon="121.4497">
        <ele>0.95325</ele>
        <time>2015-08-11T14:06:47.073000Z</time>
      </trkpt>
      <trkpt lat="31.26678" lon="121.44975">
        <ele>1.17641</ele>
        <time>2015-08-11T14:06:52.040000Z</time>
      </trkpt>
      <trkpt lat="31.26669" lon="121.44982">
        <ele>1.34493</ele>
        <time>2015-08-11T14:06:56.051000Z</time>
      </trkpt>
      <trkpt lat="31.2666" lon="121.44987">
        <ele>1.28016</ele>
        <time>2015-08-11T14:07:00.068000Z</time>
      </trkpt>
      <trkpt lat="31.26651" lon="121.44992">
        <ele>1.33178</ele>
        <time>2015-08-11T14:07:04.058000Z</time>
      </trkpt>
      <trkpt lat="31.26642" lon="121.44996">
        <ele>1.29585</ele>
        <time>2015-08-11T14:07:08.068000Z</time>
      </trkpt>
      <trkpt lat="31.26633" lon="121.45002">
        <ele>1.63238</ele>
        <time>2015-08-11T14:07:13.048000Z</time>
      </trkpt>
      <trkpt lat="31.26624" lon="121.45008">
        <ele>1.78066</ele>
        <time>2015-08-11T14:07:17.034000Z</time>
      </trkpt>
      <trkpt lat="31.26614" lon="121.45014">
        <ele>1.3672</ele>
        <time>2015-08-11T14:07:21.057000Z</time>
      </trkpt>
      <trkpt lat="31.26606" lon="121.45018">
        <ele>1.44159</ele>
        <time>2015-08-11T14:07:25.057000Z</time>
      </trkpt>
      <trkpt lat="31.26598" lon="121.45025">
        <ele>1.65313</ele>
        <time>2015-08-11T14:07:30.068000Z</time>
      </trkpt>
      <trkpt lat="31.2659" lon="121.4503">
        <ele>1.61871</ele>
        <time>2015-08-11T14:07:34.052000Z</time>
      </trkpt>
      <trkpt lat="31.26581" lon="121.45036">
        <ele>1.48714</ele>
        <time>2015-08-11T14:07:38.053000Z</time>
      </trkpt>
      <trkpt lat="31.26572" lon="121.4504">
        <ele>1.44817</ele>
        <time>2015-08-11T14:07:42.062000Z</time>
      </trkpt>
      <trkpt lat="31.26562" lon="121.45045">
        <ele>1.34949</ele>
        <time>2015-08-11T14:07:46.060000Z</time>
      </trkpt>
      <trkpt lat="31.26554" lon="121.45051">
        <ele>1.41629</ele>
        <time>2015-08-11T14:07:50.055000Z</time>
      </trkpt>
      <trkpt lat="31.26547" lon="121.45057">
        <ele>1.33785</ele>
        <time>2015-08-11T14:07:54.066000Z</time>
      </trkpt>
      <trkpt lat="31.2654" lon="121.45065">
        <ele>1.46082</ele>
        <time>2015-08-11T14:07:58.055000Z</time>
      </trkpt>
      <trkpt lat="31.2653" lon="121.4507">
        <ele>1.48158</ele>
        <time>2015-08-11T14:08:04.057000Z</time>
      </trkpt>
      <trkpt lat="31.26523" lon="121.4506">
        <ele>2.14606</ele>
        <time>2015-08-11T14:08:08.057000Z</time>
      </trkpt>
      <trkpt lat="31.2653" lon="121.45051">
        <ele>2.05952</ele>
        <time>2015-08-11T14:08:12.057000Z</time>
      </trkpt>
      <trkpt lat="31.26539" lon="121.45048">
        <ele>2.06154</ele>
        <time>2015-08-11T14:08:16.038000Z</time>
      </trkpt>
      <trkpt lat="31.26548" lon="121.4504">
        <ele>1.96285</ele>
        <time>2015-08-11T14:08:21.037000Z</time>
      </trkpt>
      <trkpt lat="31.26557" lon="121.45034">
        <ele>1.97905</ele>
        <time>2015-08-11T14:08:26.057000Z</time>
      </trkpt>
      <trkpt lat="31.26565" lon="121.45028">
        <ele>2.3065</ele>
        <time>2015-08-11T14:08:30.058000Z</time>
      </trkpt>
      <trkpt lat="31.26574" lon="121.45023">
        <ele>2.44922</ele>
        <time>2015-08-11T14:08:34.057000Z</time>
      </trkpt>
      <trkpt lat="31.26583" lon="121.45016">
        <ele>2.08533</ele>
        <time>2015-08-11T14:08:38.058000Z</time>
      </trkpt>
      <trkpt lat="31.26591" lon="121.45009">
        <ele>2.03421</ele>
        <time>2015-08-11T14:08:42.055000Z</time>
      </trkpt>
      <trkpt lat="31.266" lon="121.45004">
        <ele>2.47857</ele>
        <time>2015-08-11T14:08:46.064000Z</time>
      </trkpt>
      <trkpt lat="31.26609" lon="121.45">
        <ele>2.14859</ele>
        <time>2015-08-11T14:08:50.058000Z</time>
      </trkpt>
      <trkpt lat="31.26618" lon="121.44996">
        <ele>2.16377</ele>
        <time>2015-08-11T14:08:54.057000Z</time>
      </trkpt>
      <trkpt lat="31.26627" lon="121.44989">
        <ele>2.2073</ele>
        <time>2015-08-11T14:08:58.065000Z</time>
      </trkpt>
      <trkpt lat="31.26637" lon="121.44984">
        <ele>1.92641</ele>
        <time>2015-08-11T14:09:02.057000Z</time>
      </trkpt>
      <trkpt lat="31.26646" lon="121.4498">
        <ele>1.63693</ele>
        <time>2015-08-11T14:09:06.059000Z</time>
      </trkpt>
      <trkpt lat="31.26656" lon="121.44974">
        <ele>1.46386</ele>
        <time>2015-08-11T14:09:11.048000Z</time>
      </trkpt>
      <trkpt lat="31.26664" lon="121.44966">
        <ele>1.46588</ele>
        <time>2015-08-11T14:09:16.051000Z</time>
      </trkpt>
      <trkpt lat="31.26673" lon="121.44959">
        <ele>1.44362</ele>
        <time>2015-08-11T14:09:20.043000Z</time>
      </trkpt>
      <trkpt lat="31.26682" lon="121.44954">
        <ele>1.33987</ele>
        <time>2015-08-11T14:09:25.053000Z</time>
      </trkpt>
      <trkpt lat="31.2669" lon="121.44948">
        <ele>1.11468</ele>
        <time>2015-08-11T14:09:30.052000Z</time>
      </trkpt>
      <trkpt lat="31.26699" lon="121.44941">
        <ele>1.25131</ele>
        <time>2015-08-11T14:09:34.065000Z</time>
      </trkpt>
      <trkpt lat="31.26708" lon="121.44935">
        <ele>1.36265</ele>
        <time>2015-08-11T14:09:38.055000Z</time>
      </trkpt>
      <trkpt lat="31.26717" lon="121.44928">
        <ele>1.3925</ele>
        <time>2015-08-11T14:09:42.042000Z</time>
      </trkpt>
      <trkpt lat="31.26727" lon="121.44922">
        <ele>1.52104</ele>
        <time>2015-08-11T14:09:46.049000Z</time>
      </trkpt>
      <trkpt lat="31.26737" lon="121.44916">
        <ele>1.29079</ele>
        <time>2015-08-11T14:09:51.039000Z</time>
      </trkpt>
      <trkpt lat="31.26746" lon="121.44912">
        <ele>1.57773</ele>
        <time>2015-08-11T14:09:55.042000Z</time>
      </trkpt>
      <trkpt lat="31.26756" lon="121.44908">
        <ele>1.66983</ele>
        <time>2015-08-11T14:09:59.042000Z</time>
      </trkpt>
      <trkpt lat="31.26765" lon="121.44904">
        <ele>1.70222</ele>
        <time>2015-08-11T14:10:04.043000Z</time>
      </trkpt>
      <trkpt lat="31.26774" lon="121.44898">
        <ele>1.53471</ele>
        <time>2015-08-11T14:10:08.058000Z</time>
      </trkpt>
      <trkpt lat="31.26781" lon="121.44891">
        <ele>1.40009</ele>
        <time>2015-08-11T14:10:12.078000Z</time>
      </trkpt>
      <trkpt lat="31.26792" lon="121.44887">
        <ele>1.48967</ele>
        <time>2015-08-11T14:10:17.034000Z</time>
      </trkpt>
      <trkpt lat="31.26801" lon="121.44888">
        <ele>1.54837</ele>
        <time>2015-08-11T14:10:23.046000Z</time>
      </trkpt>
      <trkpt lat="31.268" lon="121.44899">
        <ele>1.52711</ele>
        <time>2015-08-11T14:10:27.060000Z</time>
      </trkpt>
      <trkpt lat="31.2679" lon="121.44902">
        <ele>1.65768</ele>
        <time>2015-08-11T14:10:31.064000Z</time>
      </trkpt>
      <trkpt lat="31.26781" lon="121.44905">
        <ele>1.6592</ele>
        <time>2015-08-11T14:10:35.059000Z</time>
      </trkpt>
      <trkpt lat="31.26771" lon="121.44908">
        <ele>1.74271</ele>
        <time>2015-08-11T14:10:39.053000Z</time>
      </trkpt>
      <trkpt lat="31.26761" lon="121.44913">
        <ele>1.47601</ele>
        <time>2015-08-11T14:10:43.053000Z</time>
      </trkpt>
      <trkpt lat="31.26752" lon="121.44919">
        <ele>1.43046</ele>
        <time>2015-08-11T14:10:47.047000Z</time>
      </trkpt>
      <trkpt lat="31.26743" lon="121.44926">
        <ele>1.41629</ele>
        <time>2015-08-11T14:10:51.062000Z</time>
      </trkpt>
      <trkpt lat="31.26735" lon="121.44933">
        <ele>1.56659</ele>
        <time>2015-08-11T14:10:55.050000Z</time>
      </trkpt>
      <trkpt lat="31.26726" lon="121.44939">
        <ele>1.11823</ele>
        <time>2015-08-11T14:10:59.055000Z</time>
      </trkpt>
      <trkpt lat="31.26716" lon="121.44944">
        <ele>0.91074</ele>
        <time>2015-08-11T14:11:04.075000Z</time>
      </trkpt>
      <trkpt lat="31.26707" lon="121.44949">
        <ele>1.21133</ele>
        <time>2015-08-11T14:11:08.059000Z</time>
      </trkpt>
      <trkpt lat="31.26698" lon="121.44953">
        <ele>1.11114</ele>
        <time>2015-08-11T14:11:12.056000Z</time>
      </trkpt>
      <trkpt lat="31.26689" lon="121.44958">
        <ele>1.17085</ele>
        <time>2015-08-11T14:11:16.035000Z</time>
      </trkpt>
      <trkpt lat="31.26682" lon="121.44965">
        <ele>1.15769</ele>
        <time>2015-08-11T14:11:20.047000Z</time>
      </trkpt>
      <trkpt lat="31.26673" lon="121.44972">
        <ele>1.16478</ele>
        <time>2015-08-11T14:11:25.065000Z</time>
      </trkpt>
      <trkpt lat="31.26663" lon="121.44978">
        <ele>1.15617</ele>
        <time>2015-08-11T14:11:29.059000Z</time>
      </trkpt>
      <trkpt lat="31.26653" lon="121.44983">
        <ele>1.39149</ele>
        <time>2015-08-11T14:11:33.061000Z</time>
      </trkpt>
      <trkpt lat="31.26644" lon="121.44989">
        <ele>1.39605</ele>
        <time>2015-08-11T14:11:37.056000Z</time>
      </trkpt>
      <trkpt lat="31.26636" lon="121.44995">
        <ele>1.25992</ele>
        <time>2015-08-11T14:11:41.057000Z</time>
      </trkpt>
      <trkpt lat="31.26628" lon="121.45002">
        <ele>1.19211</ele>
        <time>2015-08-11T14:11:45.061000Z</time>
      </trkpt>
      <trkpt lat="31.26618" lon="121.45008">
        <ele>1.4006</ele>
        <time>2015-08-11T14:11:49.056000Z</time>
      </trkpt>
      <trkpt lat="31.26609" lon="121.45013">
        <ele>2.01144</ele>
        <time>2015-08-11T14:11:53.057000Z</time>
      </trkpt>
      <trkpt lat="31.26601" lon="121.45018">
        <ele>2.76554</ele>
        <time>2015-08-11T14:11:57.060000Z</time>
      </trkpt>
      <trkpt lat="31.26593" lon="121.45026">
        <ele>2.52514</ele>
        <time>2015-08-11T14:12:01.053000Z</time>
      </trkpt>
      <trkpt lat="31.26584" lon="121.45032">
        <ele>2.11367</ele>
        <time>2015-08-11T14:12:05.052000Z</time>
      </trkpt>
      <trkpt lat="31.26576" lon="121.45038">
        <ele>2.3065</ele>
        <time>2015-08-11T14:12:09.050000Z</time>
      </trkpt>
      <trkpt lat="31.26566" lon="121.45044">
        <ele>2.38798</ele>
        <time>2015-08-11T14:12:13.047000Z</time>
      </trkpt>
      <trkpt lat="31.26558" lon="121.45052">
        <ele>2.11367</ele>
        <time>2015-08-11T14:12:17.037000Z</time>
      </trkpt>
      <trkpt lat="31.26549" lon="121.45058">
        <ele>2.13493</ele>
        <time>2015-08-11T14:12:21.033000Z</time>
      </trkpt>
      <trkpt lat="31.26539" lon="121.45062">
        <ele>2.07268</ele>
        <time>2015-08-11T14:12:25.060000Z</time>
      </trkpt>
      <trkpt lat="31.2653" lon="121.45067">
        <ele>2.12987</ele>
        <time>2015-08-11T14:12:29.055000Z</time>
      </trkpt>
      <trkpt lat="31.26522" lon="121.45059">
        <ele>2.46187</ele>
        <time>2015-08-11T14:12:34.055000Z</time>
      </trkpt>
      <trkpt lat="31.26528" lon="121.45049">
        <ele>2.96243</ele>
        <time>2015-08-11T14:12:38.066000Z</time>
      </trkpt>
      <trkpt lat="31.26538" lon="121.45045">
        <ele>2.96699</ele>
        <time>2015-08-11T14:12:42.052000Z</time>
      </trkpt>
      <trkpt lat="31.26547" lon="121.4504">
        <ele>2.79845</ele>
        <time>2015-08-11T14:12:46.051000Z</time>
      </trkpt>
      <trkpt lat="31.26556" lon="121.45035">
        <ele>3.03835</ele>
        <time>2015-08-11T14:12:51.043000Z</time>
      </trkpt>
      <trkpt lat="31.26566" lon="121.45031">
        <ele>2.74023</ele>
        <time>2015-08-11T14:12:55.063000Z</time>
      </trkpt>
      <trkpt lat="31.26574" lon="121.45025">
        <ele>2.91283</ele>
        <time>2015-08-11T14:12:59.048000Z</time>
      </trkpt>
      <trkpt lat="31.26583" lon="121.45019">
        <ele>2.9189</ele>
        <time>2015-08-11T14:13:03.047000Z</time>
      </trkpt>
      <trkpt lat="31.26592" lon="121.45012">
        <ele>1.76396</ele>
        <time>2015-08-11T14:13:07.034000Z</time>
      </trkpt>
      <trkpt lat="31.26602" lon="121.45006">
        <ele>1.90668</ele>
        <time>2015-08-11T14:13:11.035000Z</time>
      </trkpt>
      <trkpt lat="31.2661" lon="121.44999">
        <ele>2.1582</ele>
        <time>2015-08-11T14:13:15.056000Z</time>
      </trkpt>
      <trkpt lat="31.26619" lon="121.44992">
        <ele>2.2908</ele>
        <time>2015-08-11T14:13:20.049000Z</time>
      </trkpt>
      <trkpt lat="31.26628" lon="121.44988">
        <ele>2.07368</ele>
        <time>2015-08-11T14:13:25.043000Z</time>
      </trkpt>
      <trkpt lat="31.26639" lon="121.44983">
        <ele>1.68046</ele>
        <time>2015-08-11T14:13:30.056000Z</time>
      </trkpt>
      <trkpt lat="31.26647" lon="121.44978">
        <ele>1.73562</ele>
        <time>2015-08-11T14:13:34.056000Z</time>
      </trkpt>
      <trkpt lat="31.26655" lon="121.44972">
        <ele>1.98765</ele>
        <time>2015-08-11T14:13:38.058000Z</time>
      </trkpt>
      <trkpt lat="31.26664" lon="121.44966">
        <ele>1.82722</ele>
        <time>2015-08-11T14:13:43.062000Z</time>
      </trkpt>
      <trkpt lat="31.26673" lon="121.44959">
        <ele>1.73258</ele>
        <time>2015-08-11T14:13:47.054000Z</time>
      </trkpt>
      <trkpt lat="31.26681" lon="121.44953">
        <ele>1.82975</ele>
        <time>2015-08-11T14:13:51.068000Z</time>
      </trkpt>
      <trkpt lat="31.2669" lon="121.44948">
        <ele>1.84696</ele>
        <time>2015-08-11T14:13:56.070000Z</time>
      </trkpt>
      <trkpt lat="31.26698" lon="121.44944">
        <ele>2.39101</ele>
        <time>2015-08-11T14:14:00.074000Z</time>
      </trkpt>
      <trkpt lat="31.26707" lon="121.44939">
        <ele>2.27663</ele>
        <time>2015-08-11T14:14:04.050000Z</time>
      </trkpt>
      <trkpt lat="31.26716" lon="121.44933">
        <ele>1.96741</ele>
        <time>2015-08-11T14:14:08.059000Z</time>
      </trkpt>
      <trkpt lat="31.26724" lon="121.44928">
        <ele>1.94109</ele>
        <time>2015-08-11T14:14:11.063000Z</time>
      </trkpt>
      <trkpt lat="31.26732" lon="121.44922">
        <ele>1.44311</ele>
        <time>2015-08-11T14:14:15.040000Z</time>
      </trkpt>
      <trkpt lat="31.26741" lon="121.44917">
        <ele>1.58532</ele>
        <time>2015-08-11T14:14:20.038000Z</time>
      </trkpt>
      <trkpt lat="31.2675" lon="121.44911">
        <ele>1.22196</ele>
        <time>2015-08-11T14:14:26.062000Z</time>
      </trkpt>
      <trkpt lat="31.26759" lon="121.44904">
        <ele>1.3338</ele>
        <time>2015-08-11T14:14:30.046000Z</time>
      </trkpt>
      <trkpt lat="31.26768" lon="121.44896">
        <ele>1.13543</ele>
        <time>2015-08-11T14:14:34.056000Z</time>
      </trkpt>
      <trkpt lat="31.26777" lon="121.4489">
        <ele>1.18704</ele>
        <time>2015-08-11T14:14:38.056000Z</time>
      </trkpt>
      <trkpt lat="31.26787" lon="121.44885">
        <ele>1.24979</ele>
        <time>2015-08-11T14:14:42.059000Z</time>
      </trkpt>
      <trkpt lat="31.26796" lon="121.4488">
        <ele>1.27611</ele>
        <time>2015-08-11T14:14:46.062000Z</time>
      </trkpt>
      <trkpt lat="31.26801" lon="121.4489">
        <ele>1.40768</ele>
        <time>2015-08-11T14:14:51.057000Z</time>
      </trkpt>
      <trkpt lat="31.26792" lon="121.44896">
        <ele>1.46336</ele>
        <time>2015-08-11T14:14:55.060000Z</time>
      </trkpt>
      <trkpt lat="31.26783" lon="121.44902">
        <ele>2.01195</ele>
        <time>2015-08-11T14:14:59.055000Z</time>
      </trkpt>
      <trkpt lat="31.26773" lon="121.44908">
        <ele>1.80749</ele>
        <time>2015-08-11T14:15:03.045000Z</time>
      </trkpt>
      <trkpt lat="31.26765" lon="121.44913">
        <ele>1.57722</ele>
        <time>2015-08-11T14:15:07.066000Z</time>
      </trkpt>
      <trkpt lat="31.26756" lon="121.44918">
        <ele>1.76244</ele>
        <time>2015-08-11T14:15:11.065000Z</time>
      </trkpt>
      <trkpt lat="31.26748" lon="121.44923">
        <ele>2.17035</ele>
        <time>2015-08-11T14:15:15.043000Z</time>
      </trkpt>
      <trkpt lat="31.26739" lon="121.4493">
        <ele>1.96943</ele>
        <time>2015-08-11T14:15:20.044000Z</time>
      </trkpt>
      <trkpt lat="31.26731" lon="121.44936">
        <ele>1.87783</ele>
        <time>2015-08-11T14:15:23.055000Z</time>
      </trkpt>
      <trkpt lat="31.26725" lon="121.44948">
        <ele>1.69362</ele>
        <time>2015-08-11T14:15:26.046000Z</time>
      </trkpt>
      <trkpt lat="31.2672" lon="121.44958">
        <ele>1.20222</ele>
        <time>2015-08-11T14:15:29.071000Z</time>
      </trkpt>
      <trkpt lat="31.26709" lon="121.4496">
        <ele>1.40161</ele>
        <time>2015-08-11T14:15:33.053000Z</time>
      </trkpt>
      <trkpt lat="31.26699" lon="121.44962">
        <ele>1.56103</ele>
        <time>2015-08-11T14:15:37.059000Z</time>
      </trkpt>
      <trkpt lat="31.26689" lon="121.44968">
        <ele>1.78623</ele>
        <time>2015-08-11T14:15:42.054000Z</time>
      </trkpt>
      <trkpt lat="31.26681" lon="121.44972">
        <ele>2.08533</ele>
        <time>2015-08-11T14:15:46.055000Z</time>
      </trkpt>
      <trkpt lat="31.26672" lon="121.44976">
        <ele>1.72904</ele>
        <time>2015-08-11T14:15:50.059000Z</time>
      </trkpt>
      <trkpt lat="31.26664" lon="121.4498">
        <ele>1.67337</ele>
        <time>2015-08-11T14:15:54.063000Z</time>
      </trkpt>
      <trkpt lat="31.26655" lon="121.44985">
        <ele>1.74625</ele>
        <time>2015-08-11T14:15:58.079000Z</time>
      </trkpt>
      <trkpt lat="31.26646" lon="121.4499">
        <ele>1.3343</ele>
        <time>2015-08-11T14:16:02.055000Z</time>
      </trkpt>
      <trkpt lat="31.26637" lon="121.44997">
        <ele>1.55293</ele>
        <time>2015-08-11T14:16:07.048000Z</time>
      </trkpt>
      <trkpt lat="31.26628" lon="121.45002">
        <ele>1.42944</ele>
        <time>2015-08-11T14:16:11.066000Z</time>
      </trkpt>
      <trkpt lat="31.26619" lon="121.45009">
        <ele>1.78825</ele>
        <time>2015-08-11T14:16:16.042000Z</time>
      </trkpt>
      <trkpt lat="31.26611" lon="121.45017">
        <ele>2.24525</ele>
        <time>2015-08-11T14:16:21.040000Z</time>
      </trkpt>
      <trkpt lat="31.26604" lon="121.45026">
        <ele>2.55399</ele>
        <time>2015-08-11T14:16:25.047000Z</time>
      </trkpt>
      <trkpt lat="31.26598" lon="121.45034">
        <ele>1.85303</ele>
        <time>2015-08-11T14:16:29.066000Z</time>
      </trkpt>
      <trkpt lat="31.2659" lon="121.45039">
        <ele>1.23512</ele>
        <time>2015-08-11T14:16:33.054000Z</time>
      </trkpt>
      <trkpt lat="31.26581" lon="121.45044">
        <ele>1.35708</ele>
        <time>2015-08-11T14:16:37.053000Z</time>
      </trkpt>
      <trkpt lat="31.26573" lon="121.45049">
        <ele>1.37176</ele>
        <time>2015-08-11T14:16:41.060000Z</time>
      </trkpt>
      <trkpt lat="31.26564" lon="121.45054">
        <ele>1.59695</ele>
        <time>2015-08-11T14:16:46.051000Z</time>
      </trkpt>
      <trkpt lat="31.26554" lon="121.45061">
        <ele>1.34241</ele>
        <time>2015-08-11T14:16:51.061000Z</time>
      </trkpt>
      <trkpt lat="31.26545" lon="121.45068">
        <ele>1.64807</ele>
        <time>2015-08-11T14:16:56.056000Z</time>
      </trkpt>
      <trkpt lat="31.26536" lon="121.45074">
        <ele>1.78016</ele>
        <time>2015-08-11T14:17:01.063000Z</time>
      </trkpt>
      <trkpt lat="31.26527" lon="121.45068">
        <ele>2.31712</ele>
        <time>2015-08-11T14:17:05.061000Z</time>
      </trkpt>
      <trkpt lat="31.26529" lon="121.45056">
        <ele>1.90314</ele>
        <time>2015-08-11T14:17:09.055000Z</time>
      </trkpt>
      <trkpt lat="31.26539" lon="121.4505">
        <ele>1.92186</ele>
        <time>2015-08-11T14:17:13.045000Z</time>
      </trkpt>
      <trkpt lat="31.26548" lon="121.45045">
        <ele>1.82823</ele>
        <time>2015-08-11T14:17:17.031000Z</time>
      </trkpt>
      <trkpt lat="31.26557" lon="121.45039">
        <ele>1.26852</ele>
        <time>2015-08-11T14:17:22.043000Z</time>
      </trkpt>
      <trkpt lat="31.26566" lon="121.45032">
        <ele>1.82216</ele>
        <time>2015-08-11T14:17:27.055000Z</time>
      </trkpt>
      <trkpt lat="31.26575" lon="121.45026">
        <ele>1.93299</ele>
        <time>2015-08-11T14:17:32.062000Z</time>
      </trkpt>
      <trkpt lat="31.26584" lon="121.4502">
        <ele>2.06711</ele>
        <time>2015-08-11T14:17:37.056000Z</time>
      </trkpt>
      <trkpt lat="31.26592" lon="121.45013">
        <ele>1.71386</ele>
        <time>2015-08-11T14:17:41.057000Z</time>
      </trkpt>
      <trkpt lat="31.266" lon="121.45006">
        <ele>1.86518</ele>
        <time>2015-08-11T14:17:45.063000Z</time>
      </trkpt>
      <trkpt lat="31.26609" lon="121.45002">
        <ele>1.85404</ele>
        <time>2015-08-11T14:17:49.054000Z</time>
      </trkpt>
      <trkpt lat="31.26619" lon="121.44997">
        <ele>1.67944</ele>
        <time>2015-08-11T14:17:54.062000Z</time>
      </trkpt>
      <trkpt lat="31.26628" lon="121.44992">
        <ele>2.20528</ele>
        <time>2015-08-11T14:17:58.053000Z</time>
      </trkpt>
      <trkpt lat="31.26637" lon="121.44987">
        <ele>1.92641</ele>
        <time>2015-08-11T14:18:02.061000Z</time>
      </trkpt>
      <trkpt lat="31.26645" lon="121.44982">
        <ele>1.76447</ele>
        <time>2015-08-11T14:18:06.053000Z</time>
      </trkpt>
      <trkpt lat="31.26655" lon="121.44974">
        <ele>2.07723</ele>
        <time>2015-08-11T14:18:11.051000Z</time>
      </trkpt>
      <trkpt lat="31.26664" lon="121.44969">
        <ele>1.30749</ele>
        <time>2015-08-11T14:18:16.030000Z</time>
      </trkpt>
      <trkpt lat="31.26672" lon="121.44964">
        <ele>1.5843</ele>
        <time>2015-08-11T14:18:20.046000Z</time>
      </trkpt>
      <trkpt lat="31.2668" lon="121.44958">
        <ele>1.74676</ele>
        <time>2015-08-11T14:18:24.032000Z</time>
      </trkpt>
      <trkpt lat="31.26688" lon="121.44952">
        <ele>1.53674</ele>
        <time>2015-08-11T14:18:28.053000Z</time>
      </trkpt>
      <trkpt lat="31.26699" lon="121.44945">
        <ele>1.75991</ele>
        <time>2015-08-11T14:18:35.052000Z</time>
      </trkpt>
      <trkpt lat="31.26708" lon="121.44938">
        <ele>1.37428</ele>
        <time>2015-08-11T14:18:39.069000Z</time>
      </trkpt>
      <trkpt lat="31.26716" lon="121.44932">
        <ele>1.60354</ele>
        <time>2015-08-11T14:18:42.052000Z</time>
      </trkpt>
      <trkpt lat="31.26725" lon="121.44928">
        <ele>1.36315</ele>
        <time>2015-08-11T14:18:46.049000Z</time>
      </trkpt>
      <trkpt lat="31.26734" lon="121.44922">
        <ele>0.89556</ele>
        <time>2015-08-11T14:18:51.051000Z</time>
      </trkpt>
      <trkpt lat="31.26741" lon="121.44915">
        <ele>0.9487</ele>
        <time>2015-08-11T14:18:56.058000Z</time>
      </trkpt>
      <trkpt lat="31.26751" lon="121.4491">
        <ele>0.82725</ele>
        <time>2015-08-11T14:19:01.057000Z</time>
      </trkpt>
      <trkpt lat="31.2676" lon="121.44904">
        <ele>0.8232</ele>
        <time>2015-08-11T14:19:05.055000Z</time>
      </trkpt>
      <trkpt lat="31.26766" lon="121.44893">
        <ele>0.8571</ele>
        <time>2015-08-11T14:19:11.054000Z</time>
      </trkpt>
      <trkpt lat="31.26775" lon="121.44887">
        <ele>1.22652</ele>
        <time>2015-08-11T14:19:15.043000Z</time>
      </trkpt>
      <trkpt lat="31.26783" lon="121.44881">
        <ele>1.7002</ele>
        <time>2015-08-11T14:19:19.042000Z</time>
      </trkpt>
      <trkpt lat="31.26793" lon="121.44882">
        <ele>1.1582</ele>
        <time>2015-08-11T14:19:24.060000Z</time>
      </trkpt>
      <trkpt lat="31.26792" lon="121.44893">
        <ele>0.99019</ele>
        <time>2015-08-11T14:19:29.055000Z</time>
      </trkpt>
      <trkpt lat="31.26784" lon="121.44899">
        <ele>0.80296</ele>
        <time>2015-08-11T14:19:33.054000Z</time>
      </trkpt>
      <trkpt lat="31.26775" lon="121.44906">
        <ele>0.93959</ele>
        <time>2015-08-11T14:19:38.057000Z</time>
      </trkpt>
      <trkpt lat="31.26767" lon="121.44912">
        <ele>1.09595</ele>
        <time>2015-08-11T14:19:42.052000Z</time>
      </trkpt>
      <trkpt lat="31.26758" lon="121.44917">
        <ele>0.77209</ele>
        <time>2015-08-11T14:19:46.056000Z</time>
      </trkpt>
      <trkpt lat="31.2675" lon="121.44924">
        <ele>0.99879</ele>
        <time>2015-08-11T14:19:50.055000Z</time>
      </trkpt>
      <trkpt lat="31.26743" lon="121.4493">
        <ele>1.04333</ele>
        <time>2015-08-11T14:19:54.055000Z</time>
      </trkpt>
      <trkpt lat="31.26735" lon="121.44936">
        <ele>1.1749</ele>
        <time>2015-08-11T14:19:58.074000Z</time>
      </trkpt>
      <trkpt lat="31.26727" lon="121.44944">
        <ele>0.84647</ele>
        <time>2015-08-11T14:20:02.062000Z</time>
      </trkpt>
      <trkpt lat="31.2672" lon="121.44951">
        <ele>0.86115</ele>
        <time>2015-08-11T14:20:06.056000Z</time>
      </trkpt>
      <trkpt lat="31.2671" lon="121.44954">
        <ele>0.59599</ele>
        <time>2015-08-11T14:20:11.055000Z</time>
      </trkpt>
      <trkpt lat="31.26701" lon="121.44959">
        <ele>0.79739</ele>
        <time>2015-08-11T14:20:16.047000Z</time>
      </trkpt>
      <trkpt lat="31.26692" lon="121.44966">
        <ele>0.84344</ele>
        <time>2015-08-11T14:20:20.047000Z</time>
      </trkpt>
      <trkpt lat="31.26682" lon="121.44971">
        <ele>1.13138</ele>
        <time>2015-08-11T14:20:24.052000Z</time>
      </trkpt>
      <trkpt lat="31.26674" lon="121.44977">
        <ele>1.13391</ele>
        <time>2015-08-11T14:20:28.060000Z</time>
      </trkpt>
      <trkpt lat="31.26665" lon="121.44984">
        <ele>0.79284</ele>
        <time>2015-08-11T14:20:33.056000Z</time>
      </trkpt>
      <trkpt lat="31.26656" lon="121.44989">
        <ele>1.06812</ele>
        <time>2015-08-11T14:20:38.046000Z</time>
      </trkpt>
      <trkpt lat="31.26647" lon="121.44996">
        <ele>1.1673</ele>
        <time>2015-08-11T14:20:43.036000Z</time>
      </trkpt>
      <trkpt lat="31.26638" lon="121.45">
        <ele>1.37884</ele>
        <time>2015-08-11T14:20:48.049000Z</time>
      </trkpt>
      <trkpt lat="31.26628" lon="121.45003">
        <ele>1.65667</ele>
        <time>2015-08-11T14:20:52.060000Z</time>
      </trkpt>
      <trkpt lat="31.26618" lon="121.4501">
        <ele>1.54382</ele>
        <time>2015-08-11T14:20:57.055000Z</time>
      </trkpt>
      <trkpt lat="31.26612" lon="121.45017">
        <ele>1.684</ele>
        <time>2015-08-11T14:21:01.056000Z</time>
      </trkpt>
      <trkpt lat="31.26603" lon="121.45025">
        <ele>1.80749</ele>
        <time>2015-08-11T14:21:06.059000Z</time>
      </trkpt>
      <trkpt lat="31.26592" lon="121.45029">
        <ele>1.46284</ele>
        <time>2015-08-11T14:21:11.058000Z</time>
      </trkpt>
      <trkpt lat="31.26584" lon="121.45033">
        <ele>1.11721</ele>
        <time>2015-08-11T14:21:15.043000Z</time>
      </trkpt>
      <trkpt lat="31.26577" lon="121.4504">
        <ele>1.34898</ele>
        <time>2015-08-11T14:21:19.054000Z</time>
      </trkpt>
      <trkpt lat="31.26568" lon="121.45047">
        <ele>1.01651</ele>
        <time>2015-08-11T14:21:24.053000Z</time>
      </trkpt>
      <trkpt lat="31.26559" lon="121.45053">
        <ele>1.26042</ele>
        <time>2015-08-11T14:21:29.058000Z</time>
      </trkpt>
      <trkpt lat="31.26553" lon="121.45061">
        <ele>1.3343</ele>
        <time>2015-08-11T14:21:33.053000Z</time>
      </trkpt>
      <trkpt lat="31.26543" lon="121.45067">
        <ele>1.1916</ele>
        <time>2015-08-11T14:21:37.062000Z</time>
      </trkpt>
      <trkpt lat="31.26535" lon="121.45071">
        <ele>1.4502</ele>
        <time>2015-08-11T14:21:41.061000Z</time>
      </trkpt>
      <trkpt lat="31.26527" lon="121.45062">
        <ele>2.43252</ele>
        <time>2015-08-11T14:21:46.062000Z</time>
      </trkpt>
      <trkpt lat="31.26533" lon="121.45052">
        <ele>1.47398</ele>
        <time>2015-08-11T14:21:50.059000Z</time>
      </trkpt>
      <trkpt lat="31.26542" lon="121.45047">
        <ele>1.7169</ele>
        <time>2015-08-11T14:21:54.054000Z</time>
      </trkpt>
      <trkpt lat="31.2655" lon="121.45042">
        <ele>2.13847</ele>
        <time>2015-08-11T14:21:59.057000Z</time>
      </trkpt>
      <trkpt lat="31.26559" lon="121.45036">
        <ele>2.01347</ele>
        <time>2015-08-11T14:22:03.062000Z</time>
      </trkpt>
      <trkpt lat="31.26569" lon="121.45029">
        <ele>1.57925</ele>
        <time>2015-08-11T14:22:07.067000Z</time>
      </trkpt>
      <trkpt lat="31.26579" lon="121.45023">
        <ele>1.4426</ele>
        <time>2015-08-11T14:22:11.059000Z</time>
      </trkpt>
      <trkpt lat="31.26588" lon="121.45017">
        <ele>1.63238</ele>
        <time>2015-08-11T14:22:15.042000Z</time>
      </trkpt>
      <trkpt lat="31.26598" lon="121.45011">
        <ele>1.39807</ele>
        <time>2015-08-11T14:22:19.052000Z</time>
      </trkpt>
      <trkpt lat="31.26607" lon="121.45004">
        <ele>1.35</ele>
        <time>2015-08-11T14:22:23.064000Z</time>
      </trkpt>
      <trkpt lat="31.26613" lon="121.44996">
        <ele>1.26093</ele>
        <time>2015-08-11T14:22:27.057000Z</time>
      </trkpt>
      <trkpt lat="31.26622" lon="121.44988">
        <ele>1.06914</ele>
        <time>2015-08-11T14:22:32.054000Z</time>
      </trkpt>
      <trkpt lat="31.26632" lon="121.44984">
        <ele>1.2756</ele>
        <time>2015-08-11T14:22:37.054000Z</time>
      </trkpt>
      <trkpt lat="31.26642" lon="121.44979">
        <ele>1.49372</ele>
        <time>2015-08-11T14:22:42.060000Z</time>
      </trkpt>
      <trkpt lat="31.26651" lon="121.44973">
        <ele>1.20071</ele>
        <time>2015-08-11T14:22:47.059000Z</time>
      </trkpt>
      <trkpt lat="31.26658" lon="121.44965">
        <ele>1.17996</ele>
        <time>2015-08-11T14:22:52.055000Z</time>
      </trkpt>
      <trkpt lat="31.26669" lon="121.4496">
        <ele>1.7999</ele>
        <time>2015-08-11T14:22:57.056000Z</time>
      </trkpt>
      <trkpt lat="31.26677" lon="121.44954">
        <ele>2.02763</ele>
        <time>2015-08-11T14:23:01.052000Z</time>
      </trkpt>
      <trkpt lat="31.26688" lon="121.4495">
        <ele>1.90314</ele>
        <time>2015-08-11T14:23:06.060000Z</time>
      </trkpt>
      <trkpt lat="31.26698" lon="121.44947">
        <ele>1.37479</ele>
        <time>2015-08-11T14:23:11.057000Z</time>
      </trkpt>
      <trkpt lat="31.26706" lon="121.44942">
        <ele>1.6506</ele>
        <time>2015-08-11T14:23:15.034000Z</time>
      </trkpt>
      <trkpt lat="31.26714" lon="121.44933">
        <ele>1.26346</ele>
        <time>2015-08-11T14:23:19.034000Z</time>
      </trkpt>
      <trkpt lat="31.26721" lon="121.44923">
        <ele>0.78727</ele>
        <time>2015-08-11T14:23:23.037000Z</time>
      </trkpt>
      <trkpt lat="31.26729" lon="121.44916">
        <ele>0.73161</ele>
        <time>2015-08-11T14:23:27.069000Z</time>
      </trkpt>
      <trkpt lat="31.26737" lon="121.44912">
        <ele>0.46848</ele>
        <time>2015-08-11T14:23:31.055000Z</time>
      </trkpt>
      <trkpt lat="31.26746" lon="121.44906">
        <ele>0.37537</ele>
        <time>2015-08-11T14:23:36.056000Z</time>
      </trkpt>
      <trkpt lat="31.26755" lon="121.44901">
        <ele>0.32426</ele>
        <time>2015-08-11T14:23:40.059000Z</time>
      </trkpt>
      <trkpt lat="31.26764" lon="121.44896">
        <ele>0.51604</ele>
        <time>2015-08-11T14:23:44.056000Z</time>
      </trkpt>
      <trkpt lat="31.26774" lon="121.44891">
        <ele>0.56411</ele>
        <time>2015-08-11T14:23:48.052000Z</time>
      </trkpt>
      <trkpt lat="31.26783" lon="121.44886">
        <ele>0.35766</ele>
        <time>2015-08-11T14:23:53.054000Z</time>
      </trkpt>
      <trkpt lat="31.26791" lon="121.4488">
        <ele>0.30098</ele>
        <time>2015-08-11T14:23:58.056000Z</time>
      </trkpt>
      <trkpt lat="31.26797" lon="121.4489">
        <ele>0.60307</ele>
        <time>2015-08-11T14:24:04.057000Z</time>
      </trkpt>
      <trkpt lat="31.2679" lon="121.44898">
        <ele>0.87532</ele>
        <time>2015-08-11T14:24:08.064000Z</time>
      </trkpt>
      <trkpt lat="31.26781" lon="121.44905">
        <ele>0.96894</ele>
        <time>2015-08-11T14:24:12.062000Z</time>
      </trkpt>
      <trkpt lat="31.26772" lon="121.44909">
        <ele>1.01094</ele>
        <time>2015-08-11T14:24:16.055000Z</time>
      </trkpt>
      <trkpt lat="31.26762" lon="121.44913">
        <ele>0.52616</ele>
        <time>2015-08-11T14:24:22.038000Z</time>
      </trkpt>
      <trkpt lat="31.26753" lon="121.44918">
        <ele>0.50187</ele>
        <time>2015-08-11T14:24:27.060000Z</time>
      </trkpt>
      <trkpt lat="31.26746" lon="121.44926">
        <ele>0.28125</ele>
        <time>2015-08-11T14:24:31.060000Z</time>
      </trkpt>
      <trkpt lat="31.26738" lon="121.44934">
        <ele>0.55804</ele>
        <time>2015-08-11T14:24:36.058000Z</time>
      </trkpt>
      <trkpt lat="31.26728" lon="121.44939">
        <ele>0.40218</ele>
        <time>2015-08-11T14:24:40.058000Z</time>
      </trkpt>
      <trkpt lat="31.26719" lon="121.44945">
        <ele>0.04241</ele>
        <time>2015-08-11T14:24:44.055000Z</time>
      </trkpt>
      <trkpt lat="31.26709" lon="121.44951">
        <ele>0.10162</ele>
        <time>2015-08-11T14:24:49.061000Z</time>
      </trkpt>
      <trkpt lat="31.26699" lon="121.44957">
        <ele>-0.0011</ele>
        <time>2015-08-11T14:24:54.063000Z</time>
      </trkpt>
      <trkpt lat="31.26692" lon="121.44965">
        <ele>0.12489</ele>
        <time>2015-08-11T14:24:58.062000Z</time>
      </trkpt>
      <trkpt lat="31.26683" lon="121.44972">
        <ele>-0.20856</ele>
        <time>2015-08-11T14:25:03.056000Z</time>
      </trkpt>
      <trkpt lat="31.26675" lon="121.44976">
        <ele>0.03837</ele>
        <time>2015-08-11T14:25:07.060000Z</time>
      </trkpt>
      <trkpt lat="31.26666" lon="121.44981">
        <ele>0.18865</ele>
        <time>2015-08-11T14:25:11.048000Z</time>
      </trkpt>
      <trkpt lat="31.26657" lon="121.44986">
        <ele>0.1927</ele>
        <time>2015-08-11T14:25:16.061000Z</time>
      </trkpt>
      <trkpt lat="31.26648" lon="121.44991">
        <ele>0.42698</ele>
        <time>2015-08-11T14:25:21.040000Z</time>
      </trkpt>
      <trkpt lat="31.26638" lon="121.44997">
        <ele>0.21851</ele>
        <time>2015-08-11T14:25:25.060000Z</time>
      </trkpt>
      <trkpt lat="31.2663" lon="121.45003">
        <ele>0.2519</ele>
        <time>2015-08-11T14:25:29.058000Z</time>
      </trkpt>
      <trkpt lat="31.26622" lon="121.45009">
        <ele>0.48163</ele>
        <time>2015-08-11T14:25:33.051000Z</time>
      </trkpt>
      <trkpt lat="31.26612" lon="121.45014">
        <ele>0.25443</ele>
        <time>2015-08-11T14:25:38.055000Z</time>
      </trkpt>
      <trkpt lat="31.26603" lon="121.4502">
        <ele>0.9325</ele>
        <time>2015-08-11T14:25:43.046000Z</time>
      </trkpt>
      <trkpt lat="31.26595" lon="121.45028">
        <ele>1.14656</ele>
        <time>2015-08-11T14:25:48.054000Z</time>
      </trkpt>
      <trkpt lat="31.26587" lon="121.45035">
        <ele>0.63445</ele>
        <time>2015-08-11T14:25:52.055000Z</time>
      </trkpt>
      <trkpt lat="31.26579" lon="121.45041">
        <ele>0.74072</ele>
        <time>2015-08-11T14:25:56.057000Z</time>
      </trkpt>
      <trkpt lat="31.26571" lon="121.45047">
        <ele>0.56462</ele>
        <time>2015-08-11T14:26:00.070000Z</time>
      </trkpt>
      <trkpt lat="31.26562" lon="121.45053">
        <ele>0.57727</ele>
        <time>2015-08-11T14:26:05.053000Z</time>
      </trkpt>
      <trkpt lat="31.26554" lon="121.45058">
        <ele>0.76247</ele>
        <time>2015-08-11T14:26:09.053000Z</time>
      </trkpt>
      <trkpt lat="31.26545" lon="121.45062">
        <ele>0.63799</ele>
        <time>2015-08-11T14:26:13.043000Z</time>
      </trkpt>
      <trkpt lat="31.26536" lon="121.45065">
        <ele>0.34248</ele>
        <time>2015-08-11T14:26:17.061000Z</time>
      </trkpt>
      <trkpt lat="31.26526" lon="121.45068">
        <ele>0.61977</ele>
        <time>2015-08-11T14:26:22.071000Z</time>
      </trkpt>
      <trkpt lat="31.26525" lon="121.45056">
        <ele>0.77209</ele>
        <time>2015-08-11T14:26:28.058000Z</time>
      </trkpt>
      <trkpt lat="31.26534" lon="121.4505">
        <ele>1.56153</ele>
        <time>2015-08-11T14:26:31.057000Z</time>
      </trkpt>
      <trkpt lat="31.26545" lon="121.45044">
        <ele>0.85913</ele>
        <time>2015-08-11T14:26:35.059000Z</time>
      </trkpt>
      <trkpt lat="31.26555" lon="121.45037">
        <ele>0.95932</ele>
        <time>2015-08-11T14:26:39.059000Z</time>
      </trkpt>
      <trkpt lat="31.26564" lon="121.45031">
        <ele>0.8986</ele>
        <time>2015-08-11T14:26:43.056000Z</time>
      </trkpt>
      <trkpt lat="31.26572" lon="121.45027">
        <ele>1.03776</ele>
        <time>2015-08-11T14:26:47.048000Z</time>
      </trkpt>
      <trkpt lat="31.2658" lon="121.45021">
        <ele>0.75488</ele>
        <time>2015-08-11T14:26:51.055000Z</time>
      </trkpt>
      <trkpt lat="31.26589" lon="121.45016">
        <ele>0.71642</ele>
        <time>2015-08-11T14:26:55.047000Z</time>
      </trkpt>
      <trkpt lat="31.26597" lon="121.4501">
        <ele>1.0494</ele>
        <time>2015-08-11T14:26:59.058000Z</time>
      </trkpt>
      <trkpt lat="31.26605" lon="121.45002">
        <ele>0.71592</ele>
        <time>2015-08-11T14:27:03.056000Z</time>
      </trkpt>
      <trkpt lat="31.26614" lon="121.44997">
        <ele>0.57879</ele>
        <time>2015-08-11T14:27:07.059000Z</time>
      </trkpt>
      <trkpt lat="31.26622" lon="121.44992">
        <ele>1.17591</ele>
        <time>2015-08-11T14:27:11.059000Z</time>
      </trkpt>
      <trkpt lat="31.26632" lon="121.44986">
        <ele>1.29433</ele>
        <time>2015-08-11T14:27:16.034000Z</time>
      </trkpt>
      <trkpt lat="31.26641" lon="121.44981">
        <ele>1.21589</ele>
        <time>2015-08-11T14:27:20.058000Z</time>
      </trkpt>
      <trkpt lat="31.26651" lon="121.44977">
        <ele>1.28117</ele>
        <time>2015-08-11T14:27:24.048000Z</time>
      </trkpt>
      <trkpt lat="31.2666" lon="121.44971">
        <ele>1.07014</ele>
        <time>2015-08-11T14:27:29.046000Z</time>
      </trkpt>
      <trkpt lat="31.26666" lon="121.4496">
        <ele>1.15162</ele>
        <time>2015-08-11T14:27:33.059000Z</time>
      </trkpt>
      <trkpt lat="31.26675" lon="121.44953">
        <ele>1.1997</ele>
        <time>2015-08-11T14:27:37.053000Z</time>
      </trkpt>
      <trkpt lat="31.26683" lon="121.44948">
        <ele>1.20678</ele>
        <time>2015-08-11T14:27:41.056000Z</time>
      </trkpt>
      <trkpt lat="31.26693" lon="121.44944">
        <ele>1.28471</ele>
        <time>2015-08-11T14:27:46.067000Z</time>
      </trkpt>
      <trkpt lat="31.26703" lon="121.4494">
        <ele>1.47702</ele>
        <time>2015-08-11T14:27:51.046000Z</time>
      </trkpt>
      <trkpt lat="31.26712" lon="121.44934">
        <ele>1.16225</ele>
        <time>2015-08-11T14:27:55.056000Z</time>
      </trkpt>
      <trkpt lat="31.26721" lon="121.44927">
        <ele>0.86368</ele>
        <time>2015-08-11T14:27:59.058000Z</time>
      </trkpt>
      <trkpt lat="31.26729" lon="121.44922">
        <ele>0.80093</ele>
        <time>2015-08-11T14:28:02.062000Z</time>
      </trkpt>
      <trkpt lat="31.26737" lon="121.44916">
        <ele>0.38448</ele>
        <time>2015-08-11T14:28:06.060000Z</time>
      </trkpt>
      <trkpt lat="31.26747" lon="121.4491">
        <ele>-0.13822</ele>
        <time>2015-08-11T14:28:11.046000Z</time>
      </trkpt>
      <trkpt lat="31.26755" lon="121.44903">
        <ele>0.39105</ele>
        <time>2015-08-11T14:28:15.051000Z</time>
      </trkpt>
      <trkpt lat="31.26764" lon="121.44894">
        <ele>-0.04816</ele>
        <time>2015-08-11T14:28:19.036000Z</time>
      </trkpt>
      <trkpt lat="31.26771" lon="121.44887">
        <ele>-0.40083</ele>
        <time>2015-08-11T14:28:23.045000Z</time>
      </trkpt>
      <trkpt lat="31.26775" lon="121.44899">
        <ele>0.1674</ele>
        <time>2015-08-11T14:28:28.058000Z</time>
      </trkpt>
      <trkpt lat="31.26768" lon="121.44907">
        <ele>-0.22475</ele>
        <time>2015-08-11T14:28:31.065000Z</time>
      </trkpt>
      <trkpt lat="31.2676" lon="121.44913">
        <ele>-0.16859</ele>
        <time>2015-08-11T14:28:34.056000Z</time>
      </trkpt>
      <trkpt lat="31.26751" lon="121.4492">
        <ele>0.20636</ele>
        <time>2015-08-11T14:28:38.056000Z</time>
      </trkpt>
      <trkpt lat="31.26742" lon="121.44924">
        <ele>0.06265</ele>
        <time>2015-08-11T14:28:42.059000Z</time>
      </trkpt>
      <trkpt lat="31.26735" lon="121.44929">
        <ele>0.53881</ele>
        <time>2015-08-11T14:28:46.048000Z</time>
      </trkpt>
      <trkpt lat="31.26727" lon="121.44936">
        <ele>0.34855</ele>
        <time>2015-08-11T14:28:50.066000Z</time>
      </trkpt>
      <trkpt lat="31.26719" lon="121.44941">
        <ele>0.17043</ele>
        <time>2015-08-11T14:28:54.046000Z</time>
      </trkpt>
      <trkpt lat="31.2671" lon="121.44945">
        <ele>0.3197</ele>
        <time>2015-08-11T14:28:58.059000Z</time>
      </trkpt>
      <trkpt lat="31.26699" lon="121.44951">
        <ele>0.2519</ele>
        <time>2015-08-11T14:29:02.060000Z</time>
      </trkpt>
      <trkpt lat="31.26692" lon="121.44957">
        <ele>0.05254</ele>
        <time>2015-08-11T14:29:06.060000Z</time>
      </trkpt>
      <trkpt lat="31.26684" lon="121.44963">
        <ele>0.06519</ele>
        <time>2015-08-11T14:29:10.055000Z</time>
      </trkpt>
      <trkpt lat="31.26674" lon="121.44971">
        <ele>-0.14379</ele>
        <time>2015-08-11T14:29:14.048000Z</time>
      </trkpt>
      <trkpt lat="31.26666" lon="121.44979">
        <ele>0.12337</ele>
        <time>2015-08-11T14:29:19.041000Z</time>
      </trkpt>
      <trkpt lat="31.26657" lon="121.44985">
        <ele>0.09454</ele>
        <time>2015-08-11T14:29:23.054000Z</time>
      </trkpt>
      <trkpt lat="31.26648" lon="121.44991">
        <ele>0.0834</ele>
        <time>2015-08-11T14:29:27.051000Z</time>
      </trkpt>
      <trkpt lat="31.2664" lon="121.44997">
        <ele>0.23672</ele>
        <time>2015-08-11T14:29:31.062000Z</time>
      </trkpt>
      <trkpt lat="31.26631" lon="121.45003">
        <ele>0.23875</ele>
        <time>2015-08-11T14:29:35.059000Z</time>
      </trkpt>
      <trkpt lat="31.26623" lon="121.45007">
        <ele>0.34399</ele>
        <time>2015-08-11T14:29:39.060000Z</time>
      </trkpt>
      <trkpt lat="31.26614" lon="121.45012">
        <ele>0.53881</ele>
        <time>2015-08-11T14:29:43.058000Z</time>
      </trkpt>
      <trkpt lat="31.26605" lon="121.45015">
        <ele>0.36221</ele>
        <time>2015-08-11T14:29:47.056000Z</time>
      </trkpt>
      <trkpt lat="31.26596" lon="121.45021">
        <ele>0.22306</ele>
        <time>2015-08-11T14:29:52.053000Z</time>
      </trkpt>
      <trkpt lat="31.26589" lon="121.45028">
        <ele>0.32122</ele>
        <time>2015-08-11T14:29:56.064000Z</time>
      </trkpt>
      <trkpt lat="31.26581" lon="121.45034">
        <ele>0.33337</ele>
        <time>2015-08-11T14:30:00.065000Z</time>
      </trkpt>
      <trkpt lat="31.26572" lon="121.45042">
        <ele>0.52009</ele>
        <time>2015-08-11T14:30:05.054000Z</time>
      </trkpt>
      <trkpt lat="31.26564" lon="121.45048">
        <ele>0.26303</ele>
        <time>2015-08-11T14:30:09.057000Z</time>
      </trkpt>
      <trkpt lat="31.26554" lon="121.45055">
        <ele>0.29188</ele>
        <time>2015-08-11T14:30:14.036000Z</time>
      </trkpt>
      <trkpt lat="31.26549" lon="121.45064">
        <ele>0.00042</ele>
        <time>2015-08-11T14:30:18.044000Z</time>
      </trkpt>
      <trkpt lat="31.2654" lon="121.45069">
        <ele>0.26455</ele>
        <time>2015-08-11T14:30:22.045000Z</time>
      </trkpt>
      <trkpt lat="31.26529" lon="121.4507">
        <ele>0.36879</ele>
        <time>2015-08-11T14:30:28.054000Z</time>
      </trkpt>
      <trkpt lat="31.26523" lon="121.45062">
        <ele>0.6299</ele>
        <time>2015-08-11T14:30:31.043000Z</time>
      </trkpt>
      <trkpt lat="31.2653" lon="121.45052">
        <ele>0.75691</ele>
        <time>2015-08-11T14:30:36.060000Z</time>
      </trkpt>
      <trkpt lat="31.26539" lon="121.45046">
        <ele>1.07977</ele>
        <time>2015-08-11T14:30:40.051000Z</time>
      </trkpt>
      <trkpt lat="31.26549" lon="121.4504">
        <ele>0.73616</ele>
        <time>2015-08-11T14:30:44.053000Z</time>
      </trkpt>
      <trkpt lat="31.26557" lon="121.45035">
        <ele>0.28631</ele>
        <time>2015-08-11T14:30:48.054000Z</time>
      </trkpt>
      <trkpt lat="31.26567" lon="121.45029">
        <ele>0.32375</ele>
        <time>2015-08-11T14:30:52.070000Z</time>
      </trkpt>
      <trkpt lat="31.26576" lon="121.45024">
        <ele>0.14108</ele>
        <time>2015-08-11T14:30:56.053000Z</time>
      </trkpt>
      <trkpt lat="31.26584" lon="121.45016">
        <ele>0.59599</ele>
        <time>2015-08-11T14:31:00.077000Z</time>
      </trkpt>
      <trkpt lat="31.26592" lon="121.45011">
        <ele>0.73616</ele>
        <time>2015-08-11T14:31:04.054000Z</time>
      </trkpt>
      <trkpt lat="31.26601" lon="121.45007">
        <ele>0.40218</ele>
        <time>2015-08-11T14:31:08.056000Z</time>
      </trkpt>
      <trkpt lat="31.26611" lon="121.45001">
        <ele>1.1749</ele>
        <time>2015-08-11T14:31:12.060000Z</time>
      </trkpt>
      <trkpt lat="31.26617" lon="121.44994">
        <ele>1.24524</ele>
        <time>2015-08-11T14:31:15.046000Z</time>
      </trkpt>
      <trkpt lat="31.26626" lon="121.44987">
        <ele>1.02916</ele>
        <time>2015-08-11T14:31:19.049000Z</time>
      </trkpt>
      <trkpt lat="31.26636" lon="121.44984">
        <ele>0.84142</ele>
        <time>2015-08-11T14:31:24.036000Z</time>
      </trkpt>
      <trkpt lat="31.26646" lon="121.4498">
        <ele>0.54488</ele>
        <time>2015-08-11T14:31:28.041000Z</time>
      </trkpt>
      <trkpt lat="31.26655" lon="121.44976">
        <ele>0.60561</ele>
        <time>2015-08-11T14:31:32.050000Z</time>
      </trkpt>
      <trkpt lat="31.26664" lon="121.44972">
        <ele>0.92137</ele>
        <time>2015-08-11T14:31:36.055000Z</time>
      </trkpt>
      <trkpt lat="31.2667" lon="121.44964">
        <ele>0.39005</ele>
        <time>2015-08-11T14:31:40.059000Z</time>
      </trkpt>
      <trkpt lat="31.26678" lon="121.44957">
        <ele>-0.01071</ele>
        <time>2015-08-11T14:31:44.060000Z</time>
      </trkpt>
      <trkpt lat="31.26686" lon="121.4495">
        <ele>0.01559</ele>
        <time>2015-08-11T14:31:48.052000Z</time>
      </trkpt>
      <trkpt lat="31.26694" lon="121.44945">
        <ele>0.17094</ele>
        <time>2015-08-11T14:31:52.057000Z</time>
      </trkpt>
      <trkpt lat="31.267" lon="121.44936">
        <ele>0.3187</ele>
        <time>2015-08-11T14:31:55.055000Z</time>
      </trkpt>
      <trkpt lat="31.26711" lon="121.44934">
        <ele>0.37233</ele>
        <time>2015-08-11T14:32:00.051000Z</time>
      </trkpt>
      <trkpt lat="31.26719" lon="121.44928">
        <ele>0.58283</ele>
        <time>2015-08-11T14:32:04.049000Z</time>
      </trkpt>
      <trkpt lat="31.26727" lon="121.44921">
        <ele>0.53072</ele>
        <time>2015-08-11T14:32:09.054000Z</time>
      </trkpt>
      <trkpt lat="31.26736" lon="121.44915">
        <ele>0.00801</ele>
        <time>2015-08-11T14:32:15.053000Z</time>
      </trkpt>
      <trkpt lat="31.26744" lon="121.44908">
        <ele>-0.0603</ele>
        <time>2015-08-11T14:32:19.047000Z</time>
      </trkpt>
      <trkpt lat="31.26751" lon="121.44901">
        <ele>-0.18275</ele>
        <time>2015-08-11T14:32:24.055000Z</time>
      </trkpt>
    </trkseg>
  </trk>
</gpx>